{
"type": "FeatureCollection",
"name": "mumbai_aoi_5km",
"crs": { "type": "name", "properties": { "name": "urn:ogc:def:crs:OGC:1.3:CRS84" } },
"features": [
{ "type": "Feature", "properties": { "bbox_west": 72.7732289, "bbox_south": 18.9924937, "bbox_east": 72.9817485, "bbox_north": 19.2694771, "place_id": 248205823, "osm_type": "relation", "osm_id": 7964375, "lat": 19.1309844, "lon": 72.8894618, "class": "boundary", "type": "administrative", "place_rank": 10, "importance": 0.49827650830277187, "addresstype": "state_district", "name": "Mumbai Suburban District", "display_name": "Mumbai Suburban District, Maharashtra, India" }, "geometry": { "type": "Polygon", "coordinates": [ [ [ 72.725752090244953, 19.133120487256143 ], [ 72.72574109415055, 19.133292727040097 ], [ 72.725740982874157, 19.13333212586053 ], [ 72.725757970674238, 19.133332169201847 ], [ 72.725859010627332, 19.136969463975753 ], [ 72.726473244632075, 19.141510975993423 ], [ 72.727568284431342, 19.145970018296971 ], [ 72.729132908558952, 19.150300736988232 ], [ 72.731151063564425, 19.154458593946 ], [ 72.731325596339914, 19.154774927360265 ], [ 72.733636763027334, 19.158507088300027 ], [ 72.733285437488618, 19.161501093026189 ], [ 72.733225153259667, 19.165929609645055 ], [ 72.733238452338995, 19.166279302869231 ], [ 72.733636354844791, 19.170701712406146 ], [ 72.733936868951133, 19.172239308266199 ], [ 72.734116533480062, 19.17388646875655 ], [ 72.734243525074788, 19.174616580294909 ], [ 72.735336046493387, 19.17932137340317 ], [ 72.73629794005771, 19.182043566420102 ], [ 72.736230537056926, 19.182228526663696 ], [ 72.735208514611401, 19.186121413941297 ], [ 72.734554159738451, 19.190085122560632 ], [ 72.734429576902855, 19.19185689571356 ], [ 72.734187368260422, 19.192458836740506 ], [ 72.732922436550041, 19.196929872557035 ], [ 72.732145947045595, 19.201500452483785 ], [ 72.732042197953533, 19.202403300320501 ], [ 72.731912386627528, 19.203708205306054 ], [ 72.731817069168855, 19.204841748340971 ], [ 72.7317535469425, 19.206989466051688 ], [ 72.730920850000629, 19.209255164385766 ], [ 72.730362213653152, 19.211431820249352 ], [ 72.729915669473513, 19.212875516326111 ], [ 72.729023703151569, 19.217475189082005 ], [ 72.728939199026328, 19.218494967208276 ], [ 72.7287666639359, 19.219478887866128 ], [ 72.728475220047642, 19.224367961789916 ], [ 72.728742807027615, 19.229258264267337 ], [ 72.729047442754123, 19.231046481838696 ], [ 72.729501582886058, 19.234003497561353 ], [ 72.730490695284175, 19.2379370317745 ], [ 72.731206973011936, 19.239962539261334 ], [ 72.7312070923238, 19.239971550670639 ], [ 72.731236470231963, 19.240391946001935 ], [ 72.731975817021265, 19.245870723224243 ], [ 72.732048114761213, 19.246230331476333 ], [ 72.733031119621302, 19.25015766238576 ], [ 72.734178897320305, 19.253416294349368 ], [ 72.733952955511583, 19.254745203778526 ], [ 72.733665948022704, 19.25921245521582 ], [ 72.733845977591372, 19.26368474571597 ], [ 72.734491313773432, 19.268118143483012 ], [ 72.735595654609483, 19.272469095202688 ], [ 72.735659998463518, 19.272676805717545 ], [ 72.737253693368288, 19.276998627738237 ], [ 72.739300211447713, 19.281144942126836 ], [ 72.739520219998752, 19.281493664705046 ], [ 72.739589056738495, 19.281683281833498 ], [ 72.741569209238264, 19.285766298852252 ], [ 72.743967169266483, 19.289642118941256 ], [ 72.746759195683694, 19.293272319392134 ], [ 72.749917635503508, 19.296620909414926 ], [ 72.753411197304629, 19.299654687434497 ], [ 72.757205260990048, 19.30234357080699 ], [ 72.761262220836954, 19.304660894661424 ], [ 72.765541858439875, 19.306583676875693 ], [ 72.770001741840346, 19.308092846532062 ], [ 72.774597646865132, 19.309173433559696 ], [ 72.779283996464628, 19.309814717658945 ], [ 72.784014313653927, 19.310010335008268 ], [ 72.788741683517429, 19.30975834167792 ], [ 72.789376858791954, 19.309694241514666 ], [ 72.794429322778882, 19.308921413743395 ], [ 72.794580863361745, 19.308890209358566 ], [ 72.799102417907093, 19.307735181136252 ], [ 72.800039145586894, 19.307399069659787 ], [ 72.800700448736833, 19.307416530807338 ], [ 72.805288191117299, 19.307115789639425 ], [ 72.809823877125922, 19.306395691375624 ], [ 72.814265071392384, 19.305262969773093 ], [ 72.814719938854779, 19.305100819733958 ], [ 72.81485726307919, 19.305183367618177 ], [ 72.815428828998122, 19.305517852556186 ], [ 72.816411180511864, 19.306077339776653 ], [ 72.816498191643845, 19.306125552343016 ], [ 72.821523557613034, 19.308543208888132 ], [ 72.826814900608682, 19.310379625836148 ], [ 72.827111966914188, 19.310464154610443 ], [ 72.827522315670095, 19.310571775231622 ], [ 72.827877782893395, 19.310672961690724 ], [ 72.828100562451922, 19.310723428073324 ], [ 72.829098501126225, 19.310985145799137 ], [ 72.829305449822613, 19.311034863822169 ], [ 72.829315126301651, 19.310998558711386 ], [ 72.833156033433454, 19.311868567129661 ], [ 72.834127180878824, 19.311979783790886 ], [ 72.836832079950128, 19.312856762088288 ], [ 72.841219008105, 19.313850456939488 ], [ 72.845685396393307, 19.314445116753408 ], [ 72.850191058857177, 19.314635387886423 ], [ 72.85441605826324, 19.314432945967187 ], [ 72.854780063643688, 19.314473761695965 ], [ 72.859338890024574, 19.31456747170537 ], [ 72.863886220355525, 19.31424620768059 ], [ 72.86838023053734, 19.31351292112533 ], [ 72.870228492720656, 19.313034600070473 ], [ 72.873272423860158, 19.312515141722727 ], [ 72.877697192857767, 19.311331894830904 ], [ 72.878275536715492, 19.31114816058744 ], [ 72.882386609654191, 19.309637538047372 ], [ 72.886332646597936, 19.30777197105369 ], [ 72.88657177853888, 19.307631289745956 ], [ 72.889071862888727, 19.30645926144523 ], [ 72.892914126294329, 19.304204189669818 ], [ 72.896513643605473, 19.301613150763515 ], [ 72.897559501567613, 19.300699659310418 ], [ 72.900428567406195, 19.299247567499545 ], [ 72.904167840766405, 19.296900953058024 ], [ 72.90765775246453, 19.294230470674815 ], [ 72.908217599469438, 19.293712312705164 ], [ 72.911753849832365, 19.293092114210665 ], [ 72.916115929710358, 19.291909671649712 ], [ 72.920339459190316, 19.290337906167515 ], [ 72.920578633083551, 19.290222843797491 ], [ 72.921091053305631, 19.290083803044713 ], [ 72.925431158942459, 19.288454363240675 ], [ 72.929582088476636, 19.286428757903291 ], [ 72.93350384776285, 19.284026503825473 ], [ 72.937158655283397, 19.281270746862113 ], [ 72.940511306659502, 19.278188038502943 ], [ 72.94352951409023, 19.274808079586677 ], [ 72.946184217433725, 19.271163433648024 ], [ 72.948449863928616, 19.26728921268375 ], [ 72.950304653866667, 19.263222738389505 ], [ 72.951518396698788, 19.259631512990154 ], [ 72.953143772379022, 19.257763564979456 ], [ 72.955728528327427, 19.254123715541386 ], [ 72.957928826352287, 19.250262667248844 ], [ 72.959229283508591, 19.247331699786411 ], [ 72.961141760155513, 19.245421845268762 ], [ 72.965457977250296, 19.240643978603352 ], [ 72.966040207401818, 19.240340909781313 ], [ 72.969917461156655, 19.237820341841623 ], [ 72.973513755082521, 19.234948529516704 ], [ 72.976793963060317, 19.231753531412053 ], [ 72.97972605274893, 19.228266562816383 ], [ 72.982281398463996, 19.224521690209453 ], [ 72.984421978905544, 19.220579589762078 ], [ 72.985363410880296, 19.219908070941777 ], [ 72.988106208080922, 19.218848454465004 ], [ 72.99229992410794, 19.21674352170027 ], [ 72.996251865681387, 19.214252007026605 ], [ 72.996531103799057, 19.214034964774466 ], [ 72.998705275900676, 19.212926927739986 ], [ 73.000345970206226, 19.211886334118329 ], [ 73.003680807719178, 19.210432698489878 ], [ 73.007736603197344, 19.208179971072813 ], [ 73.01153842182201, 19.205557843296376 ], [ 73.015049118520295, 19.202591939550445 ], [ 73.018234398523575, 19.1993112430678 ], [ 73.021063152607098, 19.19574781219595 ], [ 73.02350776092878, 19.191936466608773 ], [ 73.025544362499645, 19.187914446550021 ], [ 73.027153087665624, 19.183721048463795 ], [ 73.028318251352133, 19.179397240596501 ], [ 73.029028505216459, 19.174985262348315 ], [ 73.029276947262886, 19.17052821130773 ], [ 73.02906118789754, 19.166069622019222 ], [ 73.028383371831211, 19.161653040610183 ], [ 73.027250155671979, 19.157321599438824 ], [ 73.025672641483467, 19.153117595919291 ], [ 73.023666267013212, 19.149082079634145 ], [ 73.022990992988085, 19.148012102412608 ], [ 73.022983989726811, 19.147968218029387 ], [ 73.023054298745237, 19.147956685864674 ], [ 73.022925798229167, 19.147249100473701 ], [ 73.022820896562195, 19.146692287216233 ], [ 73.022565928068047, 19.145386118714736 ], [ 73.02255510026707, 19.14533738605299 ], [ 73.022379516560505, 19.144383247771732 ], [ 73.022304013149565, 19.144015357580724 ], [ 73.021346969164483, 19.140228982105388 ], [ 73.020050338585818, 19.136535028156864 ], [ 73.018423782077349, 19.132960952275685 ], [ 73.017029589528079, 19.130503215765849 ], [ 73.017160903187829, 19.129351536472388 ], [ 73.017342476316841, 19.127340293931319 ], [ 73.017479199778307, 19.125288305974454 ], [ 73.017566399261057, 19.121615891663144 ], [ 73.017339319501943, 19.117948887853807 ], [ 73.017285572438041, 19.117436988269244 ], [ 73.016412555691105, 19.112225961169635 ], [ 73.016053424465824, 19.110672912556382 ], [ 73.015784280928614, 19.109728999986089 ], [ 73.015568600066359, 19.108747197829747 ], [ 73.015095923443013, 19.107314821497717 ], [ 73.01485288878942, 19.106462446199728 ], [ 73.014627828182356, 19.10589630661682 ], [ 73.014174075790535, 19.104521235736488 ], [ 73.013253579884648, 19.102146304744728 ], [ 73.01257047070969, 19.100485621410321 ], [ 73.011625850205746, 19.098316399592818 ], [ 73.01117085011316, 19.097306458400318 ], [ 73.010210170641557, 19.095243741742507 ], [ 73.008609025324176, 19.092235335025929 ], [ 73.008489393541424, 19.091777144182519 ], [ 73.008400221333218, 19.09131639252821 ], [ 73.008243382587551, 19.090305108520575 ], [ 73.008230078722363, 19.090074077768406 ], [ 73.00784932763581, 19.086433793057139 ], [ 73.007848872487983, 19.086385982660502 ], [ 73.007883252606547, 19.085211757094537 ], [ 73.007851234390515, 19.081875048287536 ], [ 73.007805994688283, 19.08094218148554 ], [ 73.007863200001353, 19.078352920977554 ], [ 73.007859420107536, 19.077844907358841 ], [ 73.007878369492062, 19.077773388357489 ], [ 73.008495418707909, 19.074354679838066 ], [ 73.008638041418195, 19.073329717803865 ], [ 73.008816196025151, 19.07136100966942 ], [ 73.009239568645128, 19.069792811058587 ], [ 73.009953734685226, 19.065353419468927 ], [ 73.010200632213468, 19.060868531867989 ], [ 73.010057508903358, 19.05798645194724 ], [ 73.010104106058279, 19.057555227928155 ], [ 73.010106840738189, 19.057376994254572 ], [ 73.010134562988469, 19.057034113343136 ], [ 73.010214648638808, 19.055908363785754 ], [ 73.010212762790488, 19.055908242481323 ], [ 73.010397727581235, 19.054453999654914 ], [ 73.010441452168308, 19.053621545250177 ], [ 73.010552911795529, 19.052811386301716 ], [ 73.010832782224597, 19.050180098834264 ], [ 73.010843973434234, 19.050031542947128 ], [ 73.010866175665143, 19.049885619590857 ], [ 73.011314935851971, 19.04528685925057 ], [ 73.011267440367362, 19.040668559598032 ], [ 73.011143486925405, 19.038736440541019 ], [ 73.011108455271781, 19.038236097594094 ], [ 73.010963006324062, 19.03631928444188 ], [ 73.010564179838227, 19.032892046939939 ], [ 73.009891593885627, 19.029503734152215 ], [ 73.009516215434374, 19.027942251965062 ], [ 73.009185649984147, 19.026433264458223 ], [ 73.007491656742474, 19.020653949421103 ], [ 73.006793778683658, 19.018767574986235 ], [ 73.004806920441496, 19.014209080617956 ], [ 73.003696033711321, 19.01200849373258 ], [ 73.002318934962545, 19.009486985102466 ], [ 73.001664215606127, 19.008375112016342 ], [ 73.001526540443081, 19.008142914046299 ], [ 73.001156053655677, 19.007522348474172 ], [ 73.000517066479603, 19.006444047728984 ], [ 73.000234303382982, 19.005973499093404 ], [ 72.999826475473057, 19.005304178168235 ], [ 72.998555288343681, 19.003335717827543 ], [ 72.998159309025453, 19.002756294670743 ], [ 72.997641328384404, 19.001984970692504 ], [ 72.996060816545821, 18.999778034801839 ], [ 72.994593344122762, 18.997853715555536 ], [ 72.992638472397076, 18.995463132106412 ], [ 72.991645956437807, 18.994329917773893 ], [ 72.988345207114804, 18.991079785432177 ], [ 72.986819378463807, 18.989503542057257 ], [ 72.983797565025625, 18.986876929285135 ], [ 72.982338005587209, 18.985713974460914 ], [ 72.980756282876257, 18.984507374136289 ], [ 72.978353116967, 18.982752963479413 ], [ 72.977543192950918, 18.982174623286298 ], [ 72.970767984257549, 18.977443023048334 ], [ 72.958402703817313, 18.968288294929817 ], [ 72.953643973375961, 18.965187157869003 ], [ 72.951049686774667, 18.963708330812732 ], [ 72.950114315808662, 18.963225572282603 ], [ 72.949547077792332, 18.962815203154594 ], [ 72.947465923593725, 18.961369832898885 ], [ 72.94350778330778, 18.958898854381562 ], [ 72.939310748199574, 18.956815209199046 ], [ 72.934916547104848, 18.955139606572278 ], [ 72.930368863846809, 18.953888698717897 ], [ 72.92852939666173, 18.953567205704672 ], [ 72.92818566783923, 18.953378494770735 ], [ 72.923921874698323, 18.95130298474157 ], [ 72.91946006491078, 18.949646787934388 ], [ 72.914845641078074, 18.948426752087268 ], [ 72.910125554314064, 18.947655286574168 ], [ 72.905347827479034, 18.94734023656715 ], [ 72.900561067666217, 18.947484803549024 ], [ 72.895813972845914, 18.948087512970112 ], [ 72.891154837628918, 18.949142229368245 ], [ 72.886631063116909, 18.950638218793653 ], [ 72.886362974958217, 18.950756885098777 ], [ 72.88394324415529, 18.951028527579417 ], [ 72.879459954013967, 18.951956168236677 ], [ 72.87509168859674, 18.95329124349119 ], [ 72.870879236391971, 18.955021284578333 ], [ 72.866861933769044, 18.957130134801826 ], [ 72.863077298381967, 18.959598100160459 ], [ 72.863036146662779, 18.959630914136856 ], [ 72.862169203613803, 18.960049850442687 ], [ 72.85827190272407, 18.962412635149505 ], [ 72.854634459069246, 18.965124726834031 ], [ 72.851291340726661, 18.968160432185943 ], [ 72.851201442549069, 18.968250415561982 ], [ 72.848246932130635, 18.971504819591718 ], [ 72.845631060185482, 18.975011775200109 ], [ 72.843377553512795, 18.978739499044767 ], [ 72.843352171059351, 18.978792617137575 ], [ 72.842748826061836, 18.979669575209986 ], [ 72.840606992946917, 18.983562243165654 ], [ 72.840419224315838, 18.983948092484969 ], [ 72.838706993218622, 18.987960740807882 ], [ 72.837406589677812, 18.992110939782243 ], [ 72.836529998657866, 18.996360535136965 ], [ 72.836434569325107, 18.997285467659164 ], [ 72.836419776307153, 18.997280370818249 ], [ 72.831896351788117, 18.99618550384125 ], [ 72.827281818367453, 18.995518350099758 ], [ 72.822620747815279, 18.995285349987057 ], [ 72.817958159572882, 18.995488750360547 ], [ 72.813339086955068, 18.996126583030069 ], [ 72.808808143249166, 18.997192683863211 ], [ 72.808720965219521, 18.997217579576436 ], [ 72.806503071614031, 18.997958925010302 ], [ 72.804364096537128, 18.998469948211419 ], [ 72.799985383189096, 18.999962387430639 ], [ 72.795781139998255, 19.001855146260848 ], [ 72.791791698573974, 19.004130066416138 ], [ 72.788055334028343, 19.006765323583458 ], [ 72.784607898345556, 19.009735636420508 ], [ 72.781482476775153, 19.013012508664584 ], [ 72.778709070527, 19.016564502049857 ], [ 72.776314308802029, 19.0203575374371 ], [ 72.775345130242627, 19.022301493389662 ], [ 72.774912910371299, 19.023044769402343 ], [ 72.774335691098898, 19.024326142502858 ], [ 72.774321192922287, 19.02435522128982 ], [ 72.774313945537841, 19.024374415146159 ], [ 72.773035964887882, 19.027211323940975 ], [ 72.771607580331136, 19.031535825479541 ], [ 72.770642178300008, 19.035974714648415 ], [ 72.770149519986944, 19.04048327674256 ], [ 72.770134606464779, 19.045016091820635 ], [ 72.77033436736761, 19.046962459329329 ], [ 72.769043813737568, 19.048545064969943 ], [ 72.766753788869238, 19.051940643892586 ], [ 72.766643164680488, 19.052122016640514 ], [ 72.764429598444309, 19.056219419912232 ], [ 72.762666423467863, 19.060509911270668 ], [ 72.76137201393351, 19.064948860809455 ], [ 72.760559871867272, 19.069490091209033 ], [ 72.760238485288454, 19.074086357688238 ], [ 72.76023522797712, 19.074287951061635 ], [ 72.760354752564425, 19.078257382527418 ], [ 72.760840608444838, 19.082201481485392 ], [ 72.761003337157618, 19.083156695813113 ], [ 72.761931613556172, 19.087339778729607 ], [ 72.762505447178086, 19.089087038604614 ], [ 72.762387815134844, 19.089112570748668 ], [ 72.762348025570063, 19.08912176936289 ], [ 72.757527463714737, 19.090497000763612 ], [ 72.75288693622177, 19.092349297078187 ], [ 72.748478507909695, 19.094657874072468 ], [ 72.748355429111854, 19.094730659320959 ], [ 72.744592460139017, 19.097202438252193 ], [ 72.74109689654145, 19.100006740239053 ], [ 72.737901139870544, 19.1031175789036 ], [ 72.735034818391469, 19.106506126553917 ], [ 72.734847600598215, 19.106750685352825 ], [ 72.732198088427651, 19.110611432107998 ], [ 72.729976319410667, 19.114708787229219 ], [ 72.728205466101087, 19.119000071403136 ], [ 72.726979917706586, 19.123181593990044 ], [ 72.726938845266645, 19.123318425508593 ], [ 72.726937123964518, 19.123327599758358 ], [ 72.726904009077671, 19.123440582516494 ], [ 72.726617390156633, 19.125031703438175 ], [ 72.726093053984684, 19.127826186737174 ], [ 72.725731858083307, 19.132392180249344 ], [ 72.725752090244953, 19.133120487256143 ] ] ] } }
]
}
