{
"type": "FeatureCollection",
"name": "mumbai_boundary",
"crs": { "type": "name", "properties": { "name": "urn:ogc:def:crs:OGC:1.3:CRS84" } },
"features": [
{ "type": "Feature", "properties": { "bbox_west": 72.7732289, "bbox_south": 18.9924937, "bbox_east": 72.9817485, "bbox_north": 19.2694771, "place_id": 248205823, "osm_type": "relation", "osm_id": 7964375, "lat": 19.1309844, "lon": 72.8894618, "class": "boundary", "type": "administrative", "place_rank": 10, "importance": 0.49827650830277187, "addresstype": "state_district", "name": "Mumbai Suburban District", "display_name": "Mumbai Suburban District, Maharashtra, India" }, "geometry": { "type": "MultiPolygon", "coordinates": [ [ [ [ 72.7732289, 19.1334844 ], [ 72.7732519, 19.1334472 ], [ 72.773252, 19.1334078 ], [ 72.7732795, 19.1333729 ], [ 72.7732605, 19.1333684 ], [ 72.7732633, 19.1333174 ], [ 72.7733526, 19.133316 ], [ 72.7733545, 19.1333333 ], [ 72.7734161, 19.1333867 ], [ 72.7734305, 19.1333802 ], [ 72.7734132, 19.1333574 ], [ 72.7733786, 19.133321 ], [ 72.7733605, 19.1332987 ], [ 72.7733641, 19.1332821 ], [ 72.7733562, 19.1332634 ], [ 72.7733875, 19.1331994 ], [ 72.7734534, 19.1331124 ], [ 72.7734505, 19.1330728 ], [ 72.7735085, 19.1330635 ], [ 72.773543, 19.133019 ], [ 72.7735736, 19.133 ], [ 72.7736134, 19.1329908 ], [ 72.7736602, 19.1329813 ], [ 72.7737051, 19.1329821 ], [ 72.7737261, 19.1330166 ], [ 72.7737563, 19.1330441 ], [ 72.7738226, 19.1330445 ], [ 72.7738467, 19.1331087 ], [ 72.7738674, 19.1331736 ], [ 72.7738862, 19.1331892 ], [ 72.7739146, 19.1331958 ], [ 72.7739053, 19.1332339 ], [ 72.7739269, 19.1332473 ], [ 72.7739282, 19.1332732 ], [ 72.7739485, 19.1332946 ], [ 72.7739143, 19.1333327 ], [ 72.7738872, 19.1333527 ], [ 72.7738493, 19.133348 ], [ 72.7738139, 19.1333567 ], [ 72.7737911, 19.1334142 ], [ 72.773755, 19.1334543 ], [ 72.773751, 19.1334941 ], [ 72.7737434, 19.1335334 ], [ 72.7736833, 19.1336201 ], [ 72.7736643, 19.1336204 ], [ 72.7736543, 19.1336052 ], [ 72.7736583, 19.1335465 ], [ 72.7736267, 19.1335802 ], [ 72.7735802, 19.1335885 ], [ 72.7735861, 19.1336267 ], [ 72.7735666, 19.1336535 ], [ 72.7735153, 19.1337262 ], [ 72.7734869, 19.1337574 ], [ 72.773454, 19.133773 ], [ 72.7734114, 19.1338048 ], [ 72.7734035, 19.1338007 ], [ 72.7734017, 19.1337903 ], [ 72.773416, 19.1337531 ], [ 72.7734138, 19.1337171 ], [ 72.7733864, 19.133702 ], [ 72.7733819, 19.1336904 ], [ 72.7733626, 19.1336889 ], [ 72.7733779, 19.1336134 ], [ 72.7733863, 19.1336077 ], [ 72.7733865, 19.1335741 ], [ 72.7733787, 19.1335554 ], [ 72.7733661, 19.1335474 ], [ 72.7733432, 19.133551 ], [ 72.7733128, 19.1335741 ], [ 72.7732939, 19.1335632 ], [ 72.7732741, 19.133531 ], [ 72.7732289, 19.1334844 ] ] ], [ [ [ 72.7760124, 19.2244665 ], [ 72.7761412, 19.2239169 ], [ 72.7761573, 19.2233394 ], [ 72.7765086, 19.2228988 ], [ 72.7765059, 19.2220554 ], [ 72.7766615, 19.2218705 ], [ 72.7769726, 19.2216603 ], [ 72.7774581, 19.2214349 ], [ 72.7777969, 19.2207218 ], [ 72.7780563, 19.2203458 ], [ 72.7783659, 19.2201107 ], [ 72.778751, 19.2201255 ], [ 72.7788582, 19.2199887 ], [ 72.778818, 19.2191909 ], [ 72.779156, 19.2183475 ], [ 72.7796575, 19.2177194 ], [ 72.7798587, 19.2176687 ], [ 72.7803791, 19.2176333 ], [ 72.7806687, 19.2174889 ], [ 72.7809906, 19.2168608 ], [ 72.7816424, 19.2152727 ], [ 72.7817282, 19.2147991 ], [ 72.7817067, 19.2142216 ], [ 72.7816558, 19.2134567 ], [ 72.781586, 19.2126791 ], [ 72.7814788, 19.2120763 ], [ 72.7813339, 19.2114761 ], [ 72.7808619, 19.2104199 ], [ 72.7806835, 19.2102818 ], [ 72.7805051, 19.2102147 ], [ 72.7801651, 19.2100939 ], [ 72.7801122, 19.2099918 ], [ 72.7803375, 19.2099411 ], [ 72.7804863, 19.2098044 ], [ 72.7805279, 19.2096207 ], [ 72.7804971, 19.2092066 ], [ 72.7802128, 19.2088925 ], [ 72.7799016, 19.2088115 ], [ 72.7795851, 19.2088014 ], [ 72.7793491, 19.2086696 ], [ 72.7791989, 19.2084316 ], [ 72.7793169, 19.208001 ], [ 72.7792939, 19.207298 ], [ 72.7793974, 19.2063951 ], [ 72.7796227, 19.2060202 ], [ 72.779811, 19.205834 ], [ 72.7804011, 19.2056374 ], [ 72.7809423, 19.2056783 ], [ 72.7813661, 19.2058911 ], [ 72.7822539, 19.2057897 ], [ 72.7825275, 19.2059012 ], [ 72.7825999, 19.2060506 ], [ 72.7827689, 19.2061291 ], [ 72.7830371, 19.2061317 ], [ 72.7833503, 19.2060842 ], [ 72.7837694, 19.2059443 ], [ 72.7841315, 19.2058049 ], [ 72.7845204, 19.2054883 ], [ 72.7849143, 19.2051012 ], [ 72.7852308, 19.2046972 ], [ 72.7855343, 19.2041611 ], [ 72.7857927, 19.2036029 ], [ 72.7859071, 19.203082 ], [ 72.7859285, 19.2027553 ], [ 72.7859044, 19.2024285 ], [ 72.7858588, 19.2021828 ], [ 72.7858132, 19.201932 ], [ 72.7856764, 19.2015217 ], [ 72.7854779, 19.2011316 ], [ 72.7853327, 19.2009382 ], [ 72.7850341, 19.2008226 ], [ 72.7849039, 19.2008099 ], [ 72.7847108, 19.2007998 ], [ 72.7838337, 19.2009644 ], [ 72.7832571, 19.2010708 ], [ 72.7828252, 19.2010607 ], [ 72.7825516, 19.2008631 ], [ 72.7823853, 19.2005592 ], [ 72.7822995, 19.2002045 ], [ 72.7819991, 19.1980464 ], [ 72.782042, 19.1971345 ], [ 72.7819133, 19.1962682 ], [ 72.7818274, 19.1956197 ], [ 72.7817899, 19.1950878 ], [ 72.7819616, 19.1947635 ], [ 72.7820796, 19.1943937 ], [ 72.7823478, 19.1936642 ], [ 72.7824819, 19.1934869 ], [ 72.7826321, 19.1934261 ], [ 72.7828842, 19.1935578 ], [ 72.7830827, 19.1936084 ], [ 72.7832544, 19.1935831 ], [ 72.7834958, 19.1934514 ], [ 72.7837801, 19.1930816 ], [ 72.784, 19.1929853 ], [ 72.7850246, 19.1930056 ], [ 72.7852714, 19.1932943 ], [ 72.7855182, 19.193421 ], [ 72.7859527, 19.1934413 ], [ 72.7862048, 19.1934261 ], [ 72.7864569, 19.1935679 ], [ 72.7866983, 19.1937655 ], [ 72.7869076, 19.1938238 ], [ 72.7870819, 19.1939378 ], [ 72.7874011, 19.1940796 ], [ 72.787621, 19.19411 ], [ 72.7878705, 19.1940695 ], [ 72.7884793, 19.1936768 ], [ 72.7889299, 19.193421 ], [ 72.7895361, 19.1932639 ], [ 72.7901208, 19.1932639 ], [ 72.7907243, 19.1934134 ], [ 72.7910703, 19.1935679 ], [ 72.7913949, 19.193801 ], [ 72.7916819, 19.1940036 ], [ 72.7919072, 19.1943228 ], [ 72.7922291, 19.1948041 ], [ 72.7922881, 19.1951435 ], [ 72.7925134, 19.1953867 ], [ 72.7928299, 19.1955285 ], [ 72.7929532, 19.195873 ], [ 72.7930123, 19.1962074 ], [ 72.7932537, 19.1965114 ], [ 72.7936774, 19.1966988 ], [ 72.7937472, 19.1969268 ], [ 72.7938193, 19.1970985 ], [ 72.7949735, 19.1971114 ], [ 72.796595, 19.1971296 ], [ 72.7967566, 19.1965266 ], [ 72.7966922, 19.1955336 ], [ 72.7965903, 19.1943126 ], [ 72.796534, 19.1936338 ], [ 72.796247, 19.1928941 ], [ 72.7957106, 19.1912653 ], [ 72.7956516, 19.1910221 ], [ 72.7956086, 19.1907156 ], [ 72.7956274, 19.1901532 ], [ 72.7957079, 19.1895326 ], [ 72.7958473, 19.1880229 ], [ 72.7958313, 19.1869143 ], [ 72.7961236, 19.1857708 ], [ 72.7961468, 19.1847964 ], [ 72.7961918, 19.1828478 ], [ 72.7960485, 19.1813883 ], [ 72.7956676, 19.1801773 ], [ 72.7955118, 19.1793887 ], [ 72.7953032, 19.1783672 ], [ 72.7950818, 19.1772895 ], [ 72.7949157, 19.1762439 ], [ 72.7948008, 19.1752546 ], [ 72.7942686, 19.1731031 ], [ 72.7940637, 19.172187 ], [ 72.7939832, 19.1720806 ], [ 72.7936238, 19.172035 ], [ 72.7930713, 19.1718932 ], [ 72.7926582, 19.1715892 ], [ 72.7922022, 19.1714219 ], [ 72.7916819, 19.1712877 ], [ 72.7912071, 19.1714498 ], [ 72.7908517, 19.1716069 ], [ 72.790617, 19.1716272 ], [ 72.7904266, 19.1714954 ], [ 72.7904212, 19.1713231 ], [ 72.7905124, 19.1712167 ], [ 72.7909309, 19.1710014 ], [ 72.790955, 19.1708468 ], [ 72.7908678, 19.170672 ], [ 72.7906036, 19.1703579 ], [ 72.7901423, 19.1699272 ], [ 72.7898401, 19.1697622 ], [ 72.7894878, 19.1697043 ], [ 72.7891606, 19.1698867 ], [ 72.7888951, 19.1699069 ], [ 72.7886644, 19.1698183 ], [ 72.7884693, 19.1695801 ], [ 72.7883077, 19.1693141 ], [ 72.7882808, 19.1689442 ], [ 72.7881896, 19.1686757 ], [ 72.7879925, 19.1686263 ], [ 72.7877082, 19.1685439 ], [ 72.7876478, 19.1684147 ], [ 72.7877176, 19.1681284 ], [ 72.7877068, 19.1680676 ], [ 72.7876371, 19.1676927 ], [ 72.7872723, 19.1672012 ], [ 72.7867198, 19.1668262 ], [ 72.7861297, 19.166507 ], [ 72.7854538, 19.166355 ], [ 72.7849092, 19.166442 ], [ 72.7847242, 19.1664715 ], [ 72.7844775, 19.1668262 ], [ 72.7843273, 19.1669883 ], [ 72.7842061, 19.1673441 ], [ 72.7837363, 19.1674705 ], [ 72.7828655, 19.1675913 ], [ 72.7821225, 19.1680068 ], [ 72.7819347, 19.1680321 ], [ 72.7817738, 19.1679663 ], [ 72.7816987, 19.1678953 ], [ 72.7817255, 19.167718 ], [ 72.7816611, 19.1675812 ], [ 72.7814251, 19.1674697 ], [ 72.7812749, 19.1674545 ], [ 72.7811285, 19.1672472 ], [ 72.7811301, 19.1667983 ], [ 72.7810013, 19.1665171 ], [ 72.7810174, 19.1663448 ], [ 72.7811032, 19.1660205 ], [ 72.7810684, 19.1657013 ], [ 72.7809396, 19.1652275 ], [ 72.7807277, 19.1646423 ], [ 72.7807143, 19.1642926 ], [ 72.780819, 19.1640251 ], [ 72.7811972, 19.1636394 ], [ 72.7820125, 19.163183 ], [ 72.7821976, 19.163112 ], [ 72.7823639, 19.1630563 ], [ 72.7826053, 19.1629347 ], [ 72.7829754, 19.1626762 ], [ 72.7832115, 19.1624482 ], [ 72.7834207, 19.1621644 ], [ 72.7836621, 19.1616881 ], [ 72.7838176, 19.1612371 ], [ 72.7838713, 19.1606392 ], [ 72.7838391, 19.160249 ], [ 72.7837318, 19.1598994 ], [ 72.783528, 19.1596511 ], [ 72.7833241, 19.1595751 ], [ 72.7830613, 19.1596004 ], [ 72.7828655, 19.1595573 ], [ 72.7823693, 19.1592001 ], [ 72.7819803, 19.1588454 ], [ 72.781696, 19.158549 ], [ 72.7815951, 19.1583364 ], [ 72.7815109, 19.1581334 ], [ 72.7815565, 19.1579231 ], [ 72.7816933, 19.1578015 ], [ 72.7820393, 19.1576647 ], [ 72.782506, 19.1576115 ], [ 72.7827662, 19.1575507 ], [ 72.7827904, 19.1574722 ], [ 72.7828909, 19.1574164 ], [ 72.7832034, 19.1578674 ], [ 72.7832745, 19.1578877 ], [ 72.7834073, 19.157837 ], [ 72.7836648, 19.1576318 ], [ 72.7839453, 19.1572389 ], [ 72.7841526, 19.1566268 ], [ 72.784306, 19.155891 ], [ 72.7842953, 19.1551968 ], [ 72.7842629, 19.154789 ], [ 72.7843487, 19.1545432 ], [ 72.784684, 19.1542721 ], [ 72.7852013, 19.1539981 ], [ 72.7853197, 19.1539376 ], [ 72.7854836, 19.1538397 ], [ 72.7859044, 19.1535804 ], [ 72.7865736, 19.1530394 ], [ 72.7869639, 19.1527329 ], [ 72.7873823, 19.1523237 ], [ 72.7878597, 19.1516826 ], [ 72.7884029, 19.1507616 ], [ 72.788651, 19.1502206 ], [ 72.7888548, 19.1496429 ], [ 72.7889873, 19.1491042 ], [ 72.7891445, 19.1481277 ], [ 72.7892144, 19.1471343 ], [ 72.78904, 19.146097 ], [ 72.7889568, 19.1454672 ], [ 72.7889192, 19.1451676 ], [ 72.7888177, 19.1448706 ], [ 72.7886617, 19.1448059 ], [ 72.7882969, 19.1445753 ], [ 72.7879697, 19.1440989 ], [ 72.7877363, 19.1434432 ], [ 72.7876071, 19.1429394 ], [ 72.7875003, 19.1421376 ], [ 72.7875231, 19.1419907 ], [ 72.787621, 19.141864 ], [ 72.7877672, 19.1418539 ], [ 72.788132, 19.1416157 ], [ 72.7881803, 19.1410709 ], [ 72.7880703, 19.140217 ], [ 72.7882513, 19.1396899 ], [ 72.7883854, 19.1392059 ], [ 72.788423, 19.1385775 ], [ 72.7883506, 19.1380682 ], [ 72.7884149, 19.1373713 ], [ 72.7882607, 19.1358081 ], [ 72.7879831, 19.1351186 ], [ 72.7879335, 19.1347651 ], [ 72.7879496, 19.1344952 ], [ 72.7878946, 19.1337604 ], [ 72.7878946, 19.1334702 ], [ 72.7876291, 19.1330939 ], [ 72.7874601, 19.1330103 ], [ 72.7873635, 19.1330002 ], [ 72.7869987, 19.1332029 ], [ 72.7867305, 19.1335234 ], [ 72.7865267, 19.1335526 ], [ 72.7863215, 19.1335298 ], [ 72.7860688, 19.1334581 ], [ 72.785958, 19.1333068 ], [ 72.7859443, 19.1331623 ], [ 72.786031, 19.132971 ], [ 72.7859715, 19.1327569 ], [ 72.7860052, 19.1325423 ], [ 72.7863289, 19.1322752 ], [ 72.7865075, 19.1322387 ], [ 72.7867176, 19.1322091 ], [ 72.7868063, 19.1322146 ], [ 72.7868885, 19.1322347 ], [ 72.7870973, 19.132321 ], [ 72.7871852, 19.1324211 ], [ 72.7873143, 19.1324747 ], [ 72.7874645, 19.1325457 ], [ 72.7876254, 19.1324849 ], [ 72.7877649, 19.1323734 ], [ 72.7878829, 19.1321707 ], [ 72.7881092, 19.1319511 ], [ 72.7879965, 19.1319055 ], [ 72.7881675, 19.1315737 ], [ 72.788195, 19.1315203 ], [ 72.7882822, 19.1312419 ], [ 72.7883506, 19.1310033 ], [ 72.7883023, 19.1307829 ], [ 72.7882487, 19.1306536 ], [ 72.7881833, 19.1305387 ], [ 72.7880653, 19.1305387 ], [ 72.7878329, 19.1306663 ], [ 72.7877176, 19.1307474 ], [ 72.7874842, 19.1307879 ], [ 72.7873786, 19.1306097 ], [ 72.7872928, 19.1303765 ], [ 72.786928, 19.130265 ], [ 72.7869817, 19.1300724 ], [ 72.7870353, 19.1298799 ], [ 72.7870675, 19.129667 ], [ 72.7870568, 19.1294947 ], [ 72.7870889, 19.1294212 ], [ 72.787157, 19.1293688 ], [ 72.7874118, 19.1294753 ], [ 72.7875486, 19.1295918 ], [ 72.7877095, 19.1296425 ], [ 72.7878571, 19.1296957 ], [ 72.7880985, 19.1296907 ], [ 72.7882996, 19.1296831 ], [ 72.7883828, 19.1295994 ], [ 72.7884793, 19.1295842 ], [ 72.7885839, 19.1296451 ], [ 72.7885973, 19.1298554 ], [ 72.7886768, 19.1299305 ], [ 72.7888163, 19.1299609 ], [ 72.7889451, 19.1299989 ], [ 72.7890265, 19.1299086 ], [ 72.7891489, 19.1299609 ], [ 72.7890989, 19.1301544 ], [ 72.7891633, 19.1304788 ], [ 72.7892491, 19.1307296 ], [ 72.7895308, 19.1309932 ], [ 72.7897131, 19.1310489 ], [ 72.7898875, 19.1310641 ], [ 72.7901101, 19.1310363 ], [ 72.7902754, 19.1310759 ], [ 72.7904471, 19.1310354 ], [ 72.7905651, 19.1310075 ], [ 72.7907555, 19.1310024 ], [ 72.790845, 19.1309755 ], [ 72.7909111, 19.1309061 ], [ 72.7911123, 19.1309163 ], [ 72.7913831, 19.1310151 ], [ 72.7915612, 19.1309602 ], [ 72.7917087, 19.1307702 ], [ 72.7917345, 19.1306502 ], [ 72.7917221, 19.1305066 ], [ 72.7915719, 19.1302836 ], [ 72.7915773, 19.1301975 ], [ 72.791639, 19.1301291 ], [ 72.7918509, 19.1300759 ], [ 72.7919984, 19.1302026 ], [ 72.79217, 19.1302938 ], [ 72.79228, 19.1301899 ], [ 72.7923729, 19.1301713 ], [ 72.7925526, 19.1304297 ], [ 72.7925965, 19.1304129 ], [ 72.7925955, 19.1302625 ], [ 72.7927253, 19.1302178 ], [ 72.7928718, 19.1302448 ], [ 72.7929603, 19.1303385 ], [ 72.7930166, 19.1303436 ], [ 72.7931186, 19.1302853 ], [ 72.7933127, 19.1302862 ], [ 72.7934253, 19.1303267 ], [ 72.793479, 19.1304509 ], [ 72.7934709, 19.1307322 ], [ 72.7936479, 19.1308817 ], [ 72.7938706, 19.1309222 ], [ 72.7940771, 19.1308361 ], [ 72.7941442, 19.1308614 ], [ 72.7942316, 19.1310227 ], [ 72.7943051, 19.1310667 ], [ 72.7943846, 19.1310557 ], [ 72.7944355, 19.1310505 ], [ 72.7944757, 19.1309949 ], [ 72.7944919, 19.130896 ], [ 72.7945991, 19.1308783 ], [ 72.7948003, 19.1313091 ], [ 72.794989, 19.1315279 ], [ 72.795208, 19.1319299 ], [ 72.7952304, 19.1322729 ], [ 72.7952224, 19.1327087 ], [ 72.7952465, 19.1328798 ], [ 72.7952854, 19.1329507 ], [ 72.7953753, 19.1330255 ], [ 72.7956194, 19.1331079 ], [ 72.7957991, 19.133156 ], [ 72.795842, 19.1329824 ], [ 72.7963355, 19.1330103 ], [ 72.7963006, 19.1333853 ], [ 72.7965045, 19.133621 ], [ 72.7966064, 19.1337148 ], [ 72.7967342, 19.1340256 ], [ 72.7967342, 19.1342993 ], [ 72.7966162, 19.134725 ], [ 72.7964981, 19.1348263 ], [ 72.7965089, 19.1350899 ], [ 72.7965196, 19.1353534 ], [ 72.7966698, 19.1356372 ], [ 72.7965732, 19.1359413 ], [ 72.7963265, 19.1362454 ], [ 72.7961119, 19.1364278 ], [ 72.7958973, 19.1366508 ], [ 72.7958437, 19.1368434 ], [ 72.7958651, 19.1371069 ], [ 72.7958115, 19.1373299 ], [ 72.7957042, 19.1374718 ], [ 72.7956291, 19.1376239 ], [ 72.7956828, 19.1377759 ], [ 72.795833, 19.1379989 ], [ 72.7958544, 19.1383334 ], [ 72.7957686, 19.1384854 ], [ 72.7956291, 19.1388807 ], [ 72.7953072, 19.1391949 ], [ 72.7948352, 19.1396308 ], [ 72.7944704, 19.1401578 ], [ 72.7941269, 19.1405704 ], [ 72.7941076, 19.1409411 ], [ 72.7943024, 19.1410988 ], [ 72.7946569, 19.1412093 ], [ 72.7947275, 19.1411486 ], [ 72.7953726, 19.1411343 ], [ 72.7954933, 19.1410329 ], [ 72.7956757, 19.1409619 ], [ 72.7958742, 19.1409467 ], [ 72.79596, 19.1409974 ], [ 72.7959681, 19.1412305 ], [ 72.7962126, 19.1412647 ], [ 72.7962001, 19.1415429 ], [ 72.7964615, 19.1415675 ], [ 72.7964991, 19.1413142 ], [ 72.7965662, 19.1411773 ], [ 72.7965072, 19.1410076 ], [ 72.7965069, 19.1408712 ], [ 72.7970642, 19.1400075 ], [ 72.7971724, 19.1400979 ], [ 72.7972046, 19.1404095 ], [ 72.7973792, 19.1408153 ], [ 72.7975308, 19.1409145 ], [ 72.7979986, 19.1407697 ], [ 72.798261, 19.1405165 ], [ 72.7982935, 19.1404197 ], [ 72.7983767, 19.140293 ], [ 72.7984364, 19.1400306 ], [ 72.7983505, 19.1397678 ], [ 72.7983995, 19.1397203 ], [ 72.7984766, 19.1397171 ], [ 72.7985383, 19.139745 ], [ 72.7985772, 19.1399047 ], [ 72.7985537, 19.1400599 ], [ 72.7984437, 19.1404184 ], [ 72.7985108, 19.1405514 ], [ 72.7986352, 19.14057 ], [ 72.7989136, 19.1406884 ], [ 72.7989795, 19.1408447 ], [ 72.7990187, 19.1408616 ], [ 72.799074, 19.1408649 ], [ 72.7991347, 19.1408673 ], [ 72.7991545, 19.1407795 ], [ 72.7992377, 19.140782 ], [ 72.7993771, 19.1409087 ], [ 72.7995129, 19.1411612 ], [ 72.7995773, 19.1413437 ], [ 72.7997097, 19.1412027 ], [ 72.7999136, 19.1411165 ], [ 72.7999806, 19.1410988 ], [ 72.8000638, 19.1412229 ], [ 72.7999592, 19.1414485 ], [ 72.8000423, 19.1418057 ], [ 72.8003374, 19.142049 ], [ 72.8003696, 19.1422973 ], [ 72.8005966, 19.1424257 ], [ 72.8007859, 19.1427067 ], [ 72.8006861, 19.142837 ], [ 72.8005359, 19.1428548 ], [ 72.8002804, 19.1428859 ], [ 72.7999619, 19.1427788 ], [ 72.7998831, 19.1429907 ], [ 72.8000601, 19.143158 ], [ 72.8000708, 19.1432897 ], [ 72.8001674, 19.1434316 ], [ 72.8003605, 19.1435431 ], [ 72.8004678, 19.1436546 ], [ 72.801766, 19.1442729 ], [ 72.8019457, 19.144347 ], [ 72.802053, 19.1443977 ], [ 72.8021371, 19.1444308 ], [ 72.8023115, 19.1445208 ], [ 72.8023115, 19.1445841 ], [ 72.8023933, 19.1446627 ], [ 72.8024872, 19.1446703 ], [ 72.8025824, 19.1447096 ], [ 72.8026897, 19.1449363 ], [ 72.8026615, 19.145044 ], [ 72.8025877, 19.145082 ], [ 72.8025515, 19.1451606 ], [ 72.8025556, 19.1452936 ], [ 72.802581, 19.1454026 ], [ 72.802577, 19.1456091 ], [ 72.8026162, 19.1458698 ], [ 72.8041413, 19.1454789 ], [ 72.8042561, 19.1454495 ], [ 72.8039373, 19.1447399 ], [ 72.8037518, 19.144327 ], [ 72.8035989, 19.1439849 ], [ 72.8035131, 19.1437847 ], [ 72.8034782, 19.1436175 ], [ 72.8035873, 19.1434956 ], [ 72.8036543, 19.1434208 ], [ 72.8037637, 19.1433295 ], [ 72.8036989, 19.1432475 ], [ 72.8034581, 19.1434274 ], [ 72.8033572, 19.1434715 ], [ 72.8032535, 19.143318 ], [ 72.8033366, 19.1431687 ], [ 72.8033095, 19.1430953 ], [ 72.8032842, 19.1429884 ], [ 72.8032538, 19.1429165 ], [ 72.8032318, 19.1428463 ], [ 72.8031811, 19.1427441 ], [ 72.8031372, 19.1426005 ], [ 72.8030358, 19.1423578 ], [ 72.8028297, 19.1420897 ], [ 72.8026979, 19.1419779 ], [ 72.8024343, 19.1418502 ], [ 72.8021741, 19.1416331 ], [ 72.8020526, 19.1414269 ], [ 72.8020352, 19.1412153 ], [ 72.802022, 19.1411223 ], [ 72.8020186, 19.1409755 ], [ 72.8020152, 19.1407967 ], [ 72.8019983, 19.1405221 ], [ 72.8021639, 19.1403242 ], [ 72.8027012, 19.1401103 ], [ 72.8031372, 19.1399251 ], [ 72.8036137, 19.1396793 ], [ 72.8039212, 19.1395133 ], [ 72.8040826, 19.1394371 ], [ 72.8041848, 19.1393888 ], [ 72.8044551, 19.1392132 ], [ 72.804837, 19.1390089 ], [ 72.8052433, 19.138593 ], [ 72.8058871, 19.1381038 ], [ 72.8063152, 19.1378372 ], [ 72.8064716, 19.137716 ], [ 72.806721, 19.1374879 ], [ 72.8070375, 19.1372472 ], [ 72.8071574, 19.1371291 ], [ 72.8072807, 19.1369349 ], [ 72.8075259, 19.1368279 ], [ 72.8077456, 19.1365757 ], [ 72.8080018, 19.1363868 ], [ 72.8082061, 19.1361456 ], [ 72.8084443, 19.135951 ], [ 72.8089419, 19.1355139 ], [ 72.809296, 19.1351845 ], [ 72.8094649, 19.1349995 ], [ 72.8096608, 19.1347715 ], [ 72.8102856, 19.1338998 ], [ 72.81057, 19.1335678 ], [ 72.8108195, 19.1331016 ], [ 72.8111279, 19.1327189 ], [ 72.8117555, 19.1319511 ], [ 72.8119218, 19.1316901 ], [ 72.812115, 19.1314493 ], [ 72.8122196, 19.1312947 ], [ 72.8124019, 19.1310591 ], [ 72.8126943, 19.1306916 ], [ 72.813094, 19.1301721 ], [ 72.8133082, 19.1298559 ], [ 72.8138638, 19.1289786 ], [ 72.8144807, 19.1281246 ], [ 72.8150734, 19.1269336 ], [ 72.8152531, 19.1265813 ], [ 72.8156635, 19.1260137 ], [ 72.8159881, 19.1255195 ], [ 72.8164789, 19.1247263 ], [ 72.8170099, 19.123776 ], [ 72.8172702, 19.1233452 ], [ 72.8175933, 19.1229512 ], [ 72.8180301, 19.1223236 ], [ 72.8181674, 19.1218509 ], [ 72.8184868, 19.1213396 ], [ 72.8187074, 19.121061 ], [ 72.8190133, 19.1208703 ], [ 72.8191439, 19.1208515 ], [ 72.819177, 19.1208298 ], [ 72.8191973, 19.1207875 ], [ 72.8192804, 19.1206122 ], [ 72.8195373, 19.1197246 ], [ 72.819713, 19.1192967 ], [ 72.8199158, 19.1186453 ], [ 72.8201857, 19.1179016 ], [ 72.820808, 19.1166244 ], [ 72.8213337, 19.1153623 ], [ 72.8217173, 19.1143536 ], [ 72.8221518, 19.1132841 ], [ 72.822479, 19.112245 ], [ 72.8227338, 19.1112769 ], [ 72.822994, 19.1104634 ], [ 72.823222, 19.1090162 ], [ 72.8234902, 19.1077668 ], [ 72.8237236, 19.1063221 ], [ 72.8238174, 19.1058 ], [ 72.8240131, 19.1046217 ], [ 72.8242729, 19.1031371 ], [ 72.8247284, 19.1016042 ], [ 72.8248334, 19.101269 ], [ 72.8249586, 19.1009013 ], [ 72.8252394, 19.0999144 ], [ 72.8255033, 19.099154 ], [ 72.825844, 19.0981401 ], [ 72.825993, 19.097436 ], [ 72.8261606, 19.0968298 ], [ 72.8262448, 19.096478 ], [ 72.8265532, 19.093994 ], [ 72.8265479, 19.0921869 ], [ 72.8265318, 19.0901363 ], [ 72.8264567, 19.0890414 ], [ 72.8262797, 19.0884837 ], [ 72.8260196, 19.087305 ], [ 72.8257352, 19.0865725 ], [ 72.8254965, 19.0857816 ], [ 72.8251666, 19.0851632 ], [ 72.8249225, 19.0848666 ], [ 72.8247213, 19.0845953 ], [ 72.8245416, 19.0843774 ], [ 72.8242888, 19.0841796 ], [ 72.8241152, 19.0840529 ], [ 72.8238533, 19.083906 ], [ 72.8234768, 19.0839642 ], [ 72.8231058, 19.0840779 ], [ 72.8229351, 19.0841904 ], [ 72.8227198, 19.0845201 ], [ 72.8226138, 19.085674 ], [ 72.8225876, 19.0856853 ], [ 72.8225521, 19.0856821 ], [ 72.822521, 19.0856711 ], [ 72.8226213, 19.0844435 ], [ 72.8228666, 19.0841069 ], [ 72.8240561, 19.0835155 ], [ 72.8241317, 19.0833768 ], [ 72.8241888, 19.083174 ], [ 72.824209, 19.0830111 ], [ 72.8242288, 19.0828631 ], [ 72.8242618, 19.0826072 ], [ 72.8242269, 19.0823093 ], [ 72.824217, 19.0822252 ], [ 72.8242116, 19.0821799 ], [ 72.824206, 19.0821331 ], [ 72.824089, 19.0817959 ], [ 72.8240394, 19.0816771 ], [ 72.8239992, 19.081622 ], [ 72.8239354, 19.0815463 ], [ 72.8237841, 19.0813643 ], [ 72.823626, 19.0811741 ], [ 72.8233352, 19.0809325 ], [ 72.8231245, 19.0807575 ], [ 72.8230273, 19.0807101 ], [ 72.8229487, 19.0806712 ], [ 72.8216404, 19.0822384 ], [ 72.8216268, 19.0822273 ], [ 72.8227213, 19.0808565 ], [ 72.8231174, 19.080053 ], [ 72.8233212, 19.0797589 ], [ 72.8233428, 19.0796767 ], [ 72.823399, 19.0794623 ], [ 72.8234929, 19.0794547 ], [ 72.8235573, 19.0793914 ], [ 72.8235278, 19.0792773 ], [ 72.8234607, 19.0791582 ], [ 72.8230557, 19.0787602 ], [ 72.8228762, 19.0786649 ], [ 72.8226882, 19.078565 ], [ 72.8225997, 19.0785346 ], [ 72.8225883, 19.0785244 ], [ 72.8224819, 19.0784291 ], [ 72.82235, 19.078311 ], [ 72.8222629, 19.0781762 ], [ 72.8221834, 19.0780531 ], [ 72.8221529, 19.0779941 ], [ 72.8221475, 19.0780024 ], [ 72.8208119, 19.0787949 ], [ 72.820766, 19.0787387 ], [ 72.8219839, 19.0779961 ], [ 72.8221203, 19.0778914 ], [ 72.8220519, 19.0777383 ], [ 72.821974, 19.0775788 ], [ 72.8218782, 19.0775105 ], [ 72.8216368, 19.0773533 ], [ 72.8215147, 19.0772933 ], [ 72.8213964, 19.077258 ], [ 72.8212681, 19.0771186 ], [ 72.8206863, 19.0780105 ], [ 72.8201845, 19.0783416 ], [ 72.8199701, 19.0785494 ], [ 72.8198371, 19.078788 ], [ 72.8198281, 19.0787592 ], [ 72.8197917, 19.0786418 ], [ 72.8198606, 19.078494 ], [ 72.8198698, 19.0784876 ], [ 72.8201471, 19.0782942 ], [ 72.8201864, 19.0782668 ], [ 72.820469, 19.0780565 ], [ 72.8206177, 19.077947 ], [ 72.8208006, 19.0776643 ], [ 72.8206948, 19.0775016 ], [ 72.8207466, 19.0774222 ], [ 72.8208183, 19.0772998 ], [ 72.8209591, 19.0773325 ], [ 72.8209688, 19.0773083 ], [ 72.8214026, 19.076816 ], [ 72.8213786, 19.0768157 ], [ 72.8211727, 19.0770437 ], [ 72.8210993, 19.0769905 ], [ 72.8211236, 19.0765959 ], [ 72.8211349, 19.0763915 ], [ 72.82119, 19.0761791 ], [ 72.8213006, 19.0759206 ], [ 72.8214534, 19.0757713 ], [ 72.8215311, 19.0753824 ], [ 72.8215644, 19.0749029 ], [ 72.8215133, 19.0746455 ], [ 72.8214883, 19.0744139 ], [ 72.8214222, 19.0739717 ], [ 72.8214598, 19.0736397 ], [ 72.8214946, 19.0733659 ], [ 72.8215349, 19.0729324 ], [ 72.8215107, 19.0724913 ], [ 72.8215212, 19.0724339 ], [ 72.8215245, 19.0724156 ], [ 72.8216395, 19.0717866 ], [ 72.8217868, 19.0711843 ], [ 72.8220457, 19.0704293 ], [ 72.822074, 19.0703467 ], [ 72.8223744, 19.0697839 ], [ 72.8223812, 19.0695706 ], [ 72.8223824, 19.0693042 ], [ 72.82224, 19.0688346 ], [ 72.8219798, 19.0689074 ], [ 72.8210007, 19.0692062 ], [ 72.820954, 19.0690698 ], [ 72.8221973, 19.0687471 ], [ 72.8221866, 19.0677027 ], [ 72.8223717, 19.0670816 ], [ 72.8228035, 19.0662527 ], [ 72.8228921, 19.0659598 ], [ 72.8229537, 19.0655936 ], [ 72.8228948, 19.0650878 ], [ 72.8228371, 19.0648089 ], [ 72.8226426, 19.0647493 ], [ 72.8225729, 19.0646454 ], [ 72.8226319, 19.0642892 ], [ 72.8225917, 19.0640813 ], [ 72.8223936, 19.0638047 ], [ 72.8178705, 19.064719 ], [ 72.8177809, 19.0644019 ], [ 72.8222873, 19.0635743 ], [ 72.8221706, 19.0630381 ], [ 72.8220794, 19.0628683 ], [ 72.8218192, 19.0626021 ], [ 72.8216985, 19.0623638 ], [ 72.821673, 19.0619683 ], [ 72.8216663, 19.0614816 ], [ 72.8215563, 19.0611165 ], [ 72.8213699, 19.0608921 ], [ 72.8212197, 19.0603775 ], [ 72.8208898, 19.0597171 ], [ 72.8208053, 19.0595929 ], [ 72.8207155, 19.0593787 ], [ 72.8206497, 19.0592443 ], [ 72.8205438, 19.0590694 ], [ 72.8205035, 19.0589223 ], [ 72.8208911, 19.0587563 ], [ 72.8212032, 19.058594 ], [ 72.8211218, 19.0583735 ], [ 72.8210628, 19.0581402 ], [ 72.8210997, 19.0580325 ], [ 72.8211245, 19.058016 ], [ 72.821156, 19.0580122 ], [ 72.8213632, 19.0581174 ], [ 72.821508, 19.0580743 ], [ 72.8216583, 19.0579856 ], [ 72.8218085, 19.0578132 ], [ 72.8220257, 19.0576053 ], [ 72.8223368, 19.0575622 ], [ 72.8227043, 19.0571971 ], [ 72.8228103, 19.057296 ], [ 72.8228988, 19.0572859 ], [ 72.8229732, 19.0572586 ], [ 72.8230758, 19.0572199 ], [ 72.82334, 19.0570095 ], [ 72.8233346, 19.0568954 ], [ 72.8232488, 19.0568599 ], [ 72.8232864, 19.0566495 ], [ 72.8234768, 19.0564822 ], [ 72.8235814, 19.0562059 ], [ 72.8237826, 19.0558839 ], [ 72.8238603, 19.0557191 ], [ 72.8239059, 19.0555087 ], [ 72.8239086, 19.0552526 ], [ 72.8239033, 19.0549661 ], [ 72.8238228, 19.0547608 ], [ 72.8236978, 19.0547214 ], [ 72.823689, 19.0547189 ], [ 72.8235573, 19.0546771 ], [ 72.8231683, 19.0545884 ], [ 72.8227825, 19.0543997 ], [ 72.8223744, 19.0540484 ], [ 72.8219855, 19.0533867 ], [ 72.8216824, 19.0526489 ], [ 72.8215644, 19.0523751 ], [ 72.821492, 19.0518401 ], [ 72.8214115, 19.0514725 ], [ 72.8212666, 19.0512976 ], [ 72.8211325, 19.0510517 ], [ 72.8210521, 19.0507474 ], [ 72.8210199, 19.0502885 ], [ 72.8209341, 19.0500426 ], [ 72.8206497, 19.0497232 ], [ 72.8205049, 19.0493429 ], [ 72.8199148, 19.0481411 ], [ 72.819322, 19.0468227 ], [ 72.8190887, 19.0462523 ], [ 72.8188875, 19.0458492 ], [ 72.8187078, 19.0454689 ], [ 72.8185067, 19.0450125 ], [ 72.8184181, 19.0448223 ], [ 72.8182706, 19.0446803 ], [ 72.8181365, 19.0445764 ], [ 72.8180748, 19.044333 ], [ 72.8180346, 19.04412 ], [ 72.8179193, 19.0435876 ], [ 72.817804, 19.0430127 ], [ 72.8175685, 19.0428847 ], [ 72.817714, 19.042761 ], [ 72.8178656, 19.0426089 ], [ 72.8179456, 19.0425254 ], [ 72.818012, 19.0424374 ], [ 72.8180677, 19.0423728 ], [ 72.8181053, 19.0423249 ], [ 72.8181472, 19.0421272 ], [ 72.8181338, 19.0419554 ], [ 72.8181164, 19.0418534 ], [ 72.818173, 19.0416766 ], [ 72.8182404, 19.0416638 ], [ 72.818328, 19.0416843 ], [ 72.8184651, 19.041745 ], [ 72.8188124, 19.041847 ], [ 72.8191303, 19.0419383 ], [ 72.8192885, 19.0419928 ], [ 72.8194293, 19.0420397 ], [ 72.8196962, 19.0421361 ], [ 72.8199644, 19.0422552 ], [ 72.820462, 19.0423402 ], [ 72.8208616, 19.0426723 ], [ 72.8212103, 19.0429258 ], [ 72.8214169, 19.0430247 ], [ 72.8215724, 19.043012 ], [ 72.8217494, 19.0428954 ], [ 72.8218111, 19.0427205 ], [ 72.8218415, 19.0424614 ], [ 72.8218979, 19.0418431 ], [ 72.8220686, 19.0416531 ], [ 72.8220928, 19.0411865 ], [ 72.8222019, 19.0408955 ], [ 72.8223315, 19.0405248 ], [ 72.8223744, 19.040469 ], [ 72.8224616, 19.0404441 ], [ 72.8225219, 19.040502 ], [ 72.822538, 19.0405806 ], [ 72.8224844, 19.0407276 ], [ 72.8225313, 19.0409355 ], [ 72.8225233, 19.0413095 ], [ 72.8227122, 19.0412891 ], [ 72.8227425, 19.0415428 ], [ 72.8228802, 19.0415259 ], [ 72.8228545, 19.0412854 ], [ 72.8230865, 19.0412575 ], [ 72.8230852, 19.0415719 ], [ 72.8232434, 19.0420029 ], [ 72.8234285, 19.042254 ], [ 72.8236968, 19.0423503 ], [ 72.8240937, 19.0424061 ], [ 72.8246087, 19.0425101 ], [ 72.8248957, 19.0426013 ], [ 72.8252658, 19.0427382 ], [ 72.8255823, 19.0429461 ], [ 72.8260651, 19.0432276 ], [ 72.8265801, 19.043542 ], [ 72.8267142, 19.0436332 ], [ 72.8268349, 19.0437118 ], [ 72.8271112, 19.0438564 ], [ 72.8273231, 19.0439552 ], [ 72.8274438, 19.0440313 ], [ 72.8278059, 19.0442062 ], [ 72.8283185, 19.0444369 ], [ 72.828624, 19.0446255 ], [ 72.8290223, 19.04471 ], [ 72.8292949, 19.0447873 ], [ 72.8295709, 19.0449527 ], [ 72.8297909, 19.0451052 ], [ 72.8299042, 19.0453877 ], [ 72.8299423, 19.0456529 ], [ 72.829915, 19.0458503 ], [ 72.8299593, 19.0460812 ], [ 72.8312887, 19.0474857 ], [ 72.8319472, 19.0481677 ], [ 72.8323589, 19.0485696 ], [ 72.8327345, 19.0489131 ], [ 72.8330201, 19.0491527 ], [ 72.8334003, 19.0493275 ], [ 72.8336397, 19.0493847 ], [ 72.8338538, 19.0494068 ], [ 72.8344442, 19.0493297 ], [ 72.8350943, 19.0492922 ], [ 72.8356408, 19.0494017 ], [ 72.8358082, 19.0494177 ], [ 72.8359576, 19.0494115 ], [ 72.8362173, 19.0493429 ], [ 72.836406, 19.0492631 ], [ 72.8367123, 19.0490937 ], [ 72.8368476, 19.0490538 ], [ 72.8370032, 19.0490767 ], [ 72.8372392, 19.0491705 ], [ 72.8373626, 19.0492465 ], [ 72.8374618, 19.0492541 ], [ 72.8377949, 19.0488986 ], [ 72.8378963, 19.0486913 ], [ 72.8380839, 19.0484884 ], [ 72.8381297, 19.0484251 ], [ 72.838127, 19.0482578 ], [ 72.8381406, 19.0482645 ], [ 72.8384236, 19.0483116 ], [ 72.8384504, 19.0483201 ], [ 72.8385249, 19.0483747 ], [ 72.8385598, 19.0484003 ], [ 72.838607, 19.048437 ], [ 72.8387102, 19.0485171 ], [ 72.8388119, 19.0485948 ], [ 72.8388131, 19.0485957 ], [ 72.8388769, 19.0486444 ], [ 72.8390323, 19.0487626 ], [ 72.8391713, 19.0488673 ], [ 72.8392979, 19.0489609 ], [ 72.8393687, 19.0490126 ], [ 72.8394041, 19.04904 ], [ 72.8394334, 19.0490627 ], [ 72.8395575, 19.0491556 ], [ 72.8395836, 19.049173 ], [ 72.8396078, 19.049189 ], [ 72.8396369, 19.0492082 ], [ 72.8397372, 19.0492801 ], [ 72.8398399, 19.0493536 ], [ 72.8399097, 19.0494007 ], [ 72.8400553, 19.0495037 ], [ 72.8400838, 19.0495238 ], [ 72.8401669, 19.0495827 ], [ 72.8402941, 19.0496729 ], [ 72.8403027, 19.049679 ], [ 72.8403043, 19.0496802 ], [ 72.8403044, 19.0496802 ], [ 72.8403557, 19.0497175 ], [ 72.8403938, 19.0497453 ], [ 72.8404624, 19.0497953 ], [ 72.8405716, 19.0498688 ], [ 72.8406332, 19.0499104 ], [ 72.8406577, 19.0499268 ], [ 72.8407208, 19.0499702 ], [ 72.8408176, 19.0500368 ], [ 72.8408726, 19.0500748 ], [ 72.8410852, 19.0502201 ], [ 72.8411207, 19.0502443 ], [ 72.8414627, 19.050471 ], [ 72.8416576, 19.0506055 ], [ 72.8416693, 19.0506135 ], [ 72.841765, 19.0506795 ], [ 72.8417805, 19.0506903 ], [ 72.8418797, 19.0507591 ], [ 72.841888, 19.0507648 ], [ 72.8420978, 19.0509073 ], [ 72.8421421, 19.0509374 ], [ 72.842162, 19.0509509 ], [ 72.8421624, 19.050951 ], [ 72.8422442, 19.0509602 ], [ 72.842901, 19.051004 ], [ 72.8432184, 19.0510269 ], [ 72.8445127, 19.05112 ], [ 72.8462576, 19.0512456 ], [ 72.8473037, 19.0513233 ], [ 72.8498134, 19.0515096 ], [ 72.852427, 19.0517036 ], [ 72.854183, 19.0518339 ], [ 72.8571916, 19.0520571 ], [ 72.8582507, 19.0521357 ], [ 72.8584083, 19.0521474 ], [ 72.8592933, 19.0522171 ], [ 72.8600583, 19.0522774 ], [ 72.8611754, 19.0522951 ], [ 72.8622196, 19.0523117 ], [ 72.8632132, 19.0523276 ], [ 72.8635585, 19.0523331 ], [ 72.865857, 19.0523699 ], [ 72.8662018, 19.0523711 ], [ 72.8663674, 19.0523717 ], [ 72.8666082, 19.0523726 ], [ 72.8669887, 19.0523733 ], [ 72.8673767, 19.0523739 ], [ 72.8674308, 19.0524505 ], [ 72.8675257, 19.052585 ], [ 72.8676204, 19.0525366 ], [ 72.8676205, 19.0525366 ], [ 72.8676451, 19.0525244 ], [ 72.8676836, 19.0525047 ], [ 72.8676897, 19.0525013 ], [ 72.8676898, 19.0525012 ], [ 72.8677217, 19.0524839 ], [ 72.8677406, 19.0524741 ], [ 72.8678317, 19.0524283 ], [ 72.8678716, 19.0524089 ], [ 72.8679958, 19.0523663 ], [ 72.8681739, 19.0522134 ], [ 72.8682877, 19.0520719 ], [ 72.8684046, 19.0518536 ], [ 72.8685355, 19.0516883 ], [ 72.8688797, 19.0516823 ], [ 72.8688956, 19.0513873 ], [ 72.8689618, 19.051385 ], [ 72.8691069, 19.0513966 ], [ 72.8691401, 19.0513841 ], [ 72.8691735, 19.0513716 ], [ 72.8693069, 19.0513216 ], [ 72.869439, 19.0513142 ], [ 72.8695696, 19.0513069 ], [ 72.8695925, 19.051306 ], [ 72.8697623, 19.0512998 ], [ 72.8699154, 19.0513029 ], [ 72.8700008, 19.0513111 ], [ 72.8701013, 19.0513208 ], [ 72.8702732, 19.0513383 ], [ 72.8702952, 19.0513405 ], [ 72.8704471, 19.0513104 ], [ 72.8709149, 19.051193 ], [ 72.8710334, 19.0511273 ], [ 72.871081, 19.0510884 ], [ 72.8710901, 19.0510809 ], [ 72.8712205, 19.0509965 ], [ 72.8712716, 19.0509294 ], [ 72.8713518, 19.0508766 ], [ 72.8714301, 19.0507389 ], [ 72.8716308, 19.0504479 ], [ 72.8717124, 19.0503285 ], [ 72.8717125, 19.0503285 ], [ 72.8717579, 19.050262 ], [ 72.8718367, 19.0501564 ], [ 72.871843, 19.0501479 ], [ 72.8718964, 19.0500763 ], [ 72.8719925, 19.0499469 ], [ 72.8720475, 19.0499668 ], [ 72.872241, 19.0500001 ], [ 72.8725514, 19.0500076 ], [ 72.8726843, 19.050002 ], [ 72.8730679, 19.0499857 ], [ 72.873074, 19.0499852 ], [ 72.8733953, 19.0499598 ], [ 72.8734533, 19.049948 ], [ 72.8734813, 19.0499423 ], [ 72.8737027, 19.0498972 ], [ 72.8740945, 19.0497751 ], [ 72.8741924, 19.0497446 ], [ 72.8742462, 19.0497279 ], [ 72.8744243, 19.0496629 ], [ 72.8745539, 19.0496157 ], [ 72.8749758, 19.0494251 ], [ 72.874976, 19.049425 ], [ 72.8753635, 19.049168 ], [ 72.8754549, 19.0491042 ], [ 72.8756593, 19.0489616 ], [ 72.8756876, 19.0489461 ], [ 72.8756879, 19.048946 ], [ 72.8757564, 19.0489086 ], [ 72.8758652, 19.0488725 ], [ 72.8759404, 19.0488572 ], [ 72.8759547, 19.0488543 ], [ 72.8760019, 19.0488562 ], [ 72.876065, 19.0488628 ], [ 72.8761021, 19.0488664 ], [ 72.8761286, 19.048874 ], [ 72.8761449, 19.0488787 ], [ 72.8762191, 19.0488995 ], [ 72.8763222, 19.0489409 ], [ 72.8763682, 19.0489628 ], [ 72.8764165, 19.0489855 ], [ 72.8764333, 19.0489926 ], [ 72.8764549, 19.0490016 ], [ 72.8764826, 19.0490113 ], [ 72.8764893, 19.0490135 ], [ 72.8765077, 19.0490198 ], [ 72.8765514, 19.0490297 ], [ 72.8765809, 19.0490324 ], [ 72.8765936, 19.0490321 ], [ 72.8766194, 19.0490312 ], [ 72.8766209, 19.0490312 ], [ 72.8766264, 19.0490303 ], [ 72.8766342, 19.0490291 ], [ 72.8766542, 19.0490259 ], [ 72.8766796, 19.049022 ], [ 72.8766932, 19.0490164 ], [ 72.8766958, 19.0490152 ], [ 72.8767233, 19.0489971 ], [ 72.8767235, 19.0489969 ], [ 72.8767727, 19.0489402 ], [ 72.8768177, 19.0488795 ], [ 72.876875, 19.0488018 ], [ 72.8769206, 19.0487401 ], [ 72.8771277, 19.0484983 ], [ 72.8772737, 19.0483864 ], [ 72.8775355, 19.0481856 ], [ 72.8779237, 19.047981 ], [ 72.8779244, 19.0479806 ], [ 72.8779337, 19.0479757 ], [ 72.8780304, 19.0479129 ], [ 72.8781185, 19.0478588 ], [ 72.8782318, 19.0478237 ], [ 72.8782318, 19.0478236 ], [ 72.8782957, 19.0478038 ], [ 72.8783289, 19.0477935 ], [ 72.8783289, 19.0477934 ], [ 72.878348, 19.0477899 ], [ 72.8783641, 19.0477916 ], [ 72.8783822, 19.0477987 ], [ 72.8784204, 19.0478274 ], [ 72.8784605, 19.047852 ], [ 72.878526, 19.047879 ], [ 72.8786326, 19.047894 ], [ 72.8787121, 19.047898 ], [ 72.8787874, 19.0479004 ], [ 72.8788416, 19.0478983 ], [ 72.8788745, 19.0478942 ], [ 72.8789175, 19.0478888 ], [ 72.8789486, 19.0478836 ], [ 72.8789487, 19.0478836 ], [ 72.8789562, 19.0478823 ], [ 72.8790015, 19.04787 ], [ 72.8790408, 19.0478592 ], [ 72.8791157, 19.0478344 ], [ 72.879182, 19.0478124 ], [ 72.8792177, 19.0478004 ], [ 72.8792885, 19.0477728 ], [ 72.8793204, 19.0477582 ], [ 72.8793523, 19.0477388 ], [ 72.8793969, 19.0477064 ], [ 72.8793969, 19.0477063 ], [ 72.8794102, 19.0476964 ], [ 72.8794792, 19.0476392 ], [ 72.8795182, 19.0476037 ], [ 72.8795182, 19.0476036 ], [ 72.8795318, 19.0475912 ], [ 72.879548, 19.0475754 ], [ 72.8795718, 19.0475519 ], [ 72.8796019, 19.0475084 ], [ 72.8797657, 19.0472673 ], [ 72.8799872, 19.046915 ], [ 72.8800185, 19.0467832 ], [ 72.8798701, 19.0460927 ], [ 72.8797872, 19.0456416 ], [ 72.8797868, 19.0456349 ], [ 72.8797886, 19.045624 ], [ 72.8797911, 19.0456096 ], [ 72.879793, 19.0455975 ], [ 72.8798018, 19.0455768 ], [ 72.8798121, 19.0455441 ], [ 72.8798234, 19.0455073 ], [ 72.8798329, 19.0454707 ], [ 72.8798329, 19.0454706 ], [ 72.8798345, 19.0454643 ], [ 72.8798362, 19.0454566 ], [ 72.8798362, 19.0454565 ], [ 72.8798425, 19.0454256 ], [ 72.8798427, 19.0454243 ], [ 72.8798493, 19.045392 ], [ 72.8798626, 19.0453191 ], [ 72.8798717, 19.045272 ], [ 72.8798766, 19.045257 ], [ 72.8798883, 19.0452291 ], [ 72.8798883, 19.045229 ], [ 72.8798889, 19.0452276 ], [ 72.8798897, 19.0452255 ], [ 72.8799098, 19.0451892 ], [ 72.87991, 19.0451888 ], [ 72.8799148, 19.0451801 ], [ 72.8799197, 19.0451683 ], [ 72.8799228, 19.045129 ], [ 72.8799305, 19.0451008 ], [ 72.8799322, 19.0450941 ], [ 72.8799429, 19.045069 ], [ 72.8799479, 19.0450501 ], [ 72.879951, 19.045032 ], [ 72.8799512, 19.0450131 ], [ 72.8799503, 19.0450018 ], [ 72.8799493, 19.0449928 ], [ 72.8799479, 19.0449894 ], [ 72.8799422, 19.0449768 ], [ 72.8799357, 19.044965 ], [ 72.8799357, 19.0449599 ], [ 72.8799356, 19.0449564 ], [ 72.8799374, 19.0449487 ], [ 72.8799462, 19.0449309 ], [ 72.8799824, 19.0448768 ], [ 72.8799872, 19.0448683 ], [ 72.8799873, 19.0448682 ], [ 72.8800115, 19.0448249 ], [ 72.8800215, 19.0448054 ], [ 72.8800276, 19.0447929 ], [ 72.8800329, 19.0447763 ], [ 72.8800413, 19.0447528 ], [ 72.8800444, 19.0447475 ], [ 72.8800475, 19.0447423 ], [ 72.880069, 19.0446998 ], [ 72.8800795, 19.0446783 ], [ 72.8800857, 19.0446585 ], [ 72.8800887, 19.0446488 ], [ 72.8800918, 19.0446253 ], [ 72.8800931, 19.0446139 ], [ 72.8800913, 19.0445845 ], [ 72.8800913, 19.0445844 ], [ 72.8800919, 19.0445775 ], [ 72.8800917, 19.0445531 ], [ 72.8800889, 19.0445424 ], [ 72.88008, 19.0445226 ], [ 72.8800761, 19.0445142 ], [ 72.8800635, 19.0444875 ], [ 72.8800628, 19.0444783 ], [ 72.8800618, 19.0444694 ], [ 72.8800623, 19.0444597 ], [ 72.8800625, 19.0444529 ], [ 72.8800692, 19.0444321 ], [ 72.8800802, 19.0444094 ], [ 72.8800925, 19.0443926 ], [ 72.8800946, 19.0443899 ], [ 72.8800946, 19.0443898 ], [ 72.8801097, 19.0443698 ], [ 72.8801208, 19.0443583 ], [ 72.8801231, 19.0443558 ], [ 72.8801376, 19.0443407 ], [ 72.8801534, 19.0443312 ], [ 72.8801718, 19.0443216 ], [ 72.8801751, 19.0443199 ], [ 72.8801806, 19.044317 ], [ 72.8801936, 19.044308 ], [ 72.8802082, 19.0442875 ], [ 72.8802083, 19.0442874 ], [ 72.8802098, 19.0442852 ], [ 72.8802248, 19.0442508 ], [ 72.8802507, 19.0441685 ], [ 72.8802645, 19.0441247 ], [ 72.8802645, 19.0441246 ], [ 72.8802824, 19.0440671 ], [ 72.8802933, 19.0440347 ], [ 72.8802933, 19.0440346 ], [ 72.880304, 19.044002 ], [ 72.8803247, 19.0439516 ], [ 72.8803331, 19.043931 ], [ 72.8803562, 19.0438744 ], [ 72.8803795, 19.0438244 ], [ 72.8803871, 19.0437975 ], [ 72.8804202, 19.0436538 ], [ 72.8804202, 19.0436535 ], [ 72.880433, 19.0435096 ], [ 72.880433, 19.0435095 ], [ 72.8804375, 19.0434566 ], [ 72.8804367, 19.0434553 ], [ 72.8804367, 19.0434552 ], [ 72.8804189, 19.0434257 ], [ 72.8804204, 19.0433995 ], [ 72.8804209, 19.0433872 ], [ 72.8804211, 19.043387 ], [ 72.8804316, 19.0433804 ], [ 72.8804436, 19.0433724 ], [ 72.8804474, 19.0433699 ], [ 72.8804597, 19.0433544 ], [ 72.8804638, 19.0433446 ], [ 72.8804697, 19.0433296 ], [ 72.8804782, 19.0432989 ], [ 72.8804873, 19.0432553 ], [ 72.8804894, 19.0432384 ], [ 72.8804912, 19.0432233 ], [ 72.8804951, 19.0432102 ], [ 72.8804993, 19.0431951 ], [ 72.8805038, 19.0431774 ], [ 72.8805097, 19.0431527 ], [ 72.8805227, 19.0431039 ], [ 72.8805384, 19.0430306 ], [ 72.8805459, 19.0429956 ], [ 72.8805459, 19.0429955 ], [ 72.8805657, 19.0428993 ], [ 72.8805684, 19.0428862 ], [ 72.8805863, 19.0427811 ], [ 72.8806018, 19.0427127 ], [ 72.880602, 19.0427119 ], [ 72.8806031, 19.0427041 ], [ 72.8806068, 19.0426768 ], [ 72.8806087, 19.042666 ], [ 72.8806124, 19.0426445 ], [ 72.880613, 19.04264 ], [ 72.8806138, 19.0426365 ], [ 72.8806144, 19.0426329 ], [ 72.880617, 19.0426226 ], [ 72.880645, 19.0425003 ], [ 72.8806489, 19.0424632 ], [ 72.8806495, 19.0424598 ], [ 72.8806552, 19.0424273 ], [ 72.8806637, 19.0424057 ], [ 72.8806657, 19.042392 ], [ 72.8806684, 19.0423719 ], [ 72.8806695, 19.042359 ], [ 72.8806689, 19.0423542 ], [ 72.8806683, 19.0423489 ], [ 72.8806683, 19.0423399 ], [ 72.8806688, 19.0423363 ], [ 72.8806693, 19.0423331 ], [ 72.8806706, 19.0423297 ], [ 72.8806753, 19.0423173 ], [ 72.8806888, 19.0422856 ], [ 72.8806991, 19.0422615 ], [ 72.8807051, 19.0422467 ], [ 72.8807087, 19.0422348 ], [ 72.8807088, 19.0422347 ], [ 72.8807093, 19.0422276 ], [ 72.8807094, 19.0422267 ], [ 72.8807095, 19.0422215 ], [ 72.8807101, 19.0422165 ], [ 72.8807106, 19.04221 ], [ 72.880711, 19.0422042 ], [ 72.8807119, 19.0421992 ], [ 72.8807121, 19.0421978 ], [ 72.8807165, 19.0421725 ], [ 72.8807277, 19.0421336 ], [ 72.8807322, 19.042123 ], [ 72.8807338, 19.042118 ], [ 72.8807311, 19.0419256 ], [ 72.8807312, 19.0419154 ], [ 72.8807311, 19.0419096 ], [ 72.8807314, 19.0418999 ], [ 72.8807323, 19.0418038 ], [ 72.8807323, 19.0417947 ], [ 72.8807324, 19.0417669 ], [ 72.8807321, 19.0417624 ], [ 72.8807263, 19.0417488 ], [ 72.8807177, 19.041738 ], [ 72.8807082, 19.0417282 ], [ 72.8807079, 19.0417277 ], [ 72.8807069, 19.0417267 ], [ 72.8807049, 19.0417217 ], [ 72.8807045, 19.041717 ], [ 72.8807053, 19.0417136 ], [ 72.8807052, 19.0417132 ], [ 72.8807052, 19.0417128 ], [ 72.8807092, 19.0416945 ], [ 72.8807169, 19.0416591 ], [ 72.8806984, 19.0415669 ], [ 72.8806859, 19.0415051 ], [ 72.8806859, 19.0415049 ], [ 72.8806872, 19.0415033 ], [ 72.8806868, 19.0415016 ], [ 72.8807443, 19.0414326 ], [ 72.8807773, 19.041376 ], [ 72.8807796, 19.0413714 ], [ 72.8807821, 19.0413663 ], [ 72.8807865, 19.041339 ], [ 72.8808072, 19.0412117 ], [ 72.8808215, 19.0411277 ], [ 72.8808357, 19.0410437 ], [ 72.880845, 19.0409935 ], [ 72.8808489, 19.0409711 ], [ 72.8808556, 19.0409328 ], [ 72.8808748, 19.0408109 ], [ 72.88088, 19.040772 ], [ 72.8808873, 19.0407359 ], [ 72.8808873, 19.0407356 ], [ 72.8808879, 19.0407295 ], [ 72.880889, 19.0407182 ], [ 72.8808932, 19.0406747 ], [ 72.880899, 19.0406143 ], [ 72.8808999, 19.0406047 ], [ 72.8809273, 19.0404339 ], [ 72.8809421, 19.0403116 ], [ 72.8809773, 19.040028 ], [ 72.8809873, 19.0399573 ], [ 72.8809973, 19.0398871 ], [ 72.8810061, 19.0398256 ], [ 72.8810109, 19.0397923 ], [ 72.8810179, 19.0397429 ], [ 72.8810202, 19.0397033 ], [ 72.8810202, 19.0397032 ], [ 72.8810206, 19.0396964 ], [ 72.8810206, 19.0396963 ], [ 72.8810205, 19.0396948 ], [ 72.8810191, 19.0396822 ], [ 72.88102, 19.0396741 ], [ 72.8810245, 19.0396595 ], [ 72.8810574, 19.0395773 ], [ 72.8810833, 19.0394937 ], [ 72.8810879, 19.0394721 ], [ 72.8810886, 19.0394686 ], [ 72.8810896, 19.0394607 ], [ 72.8811125, 19.0392794 ], [ 72.8811205, 19.0392101 ], [ 72.881118, 19.0392019 ], [ 72.8811149, 19.0391921 ], [ 72.8811513, 19.0390238 ], [ 72.8811553, 19.0390057 ], [ 72.8811757, 19.0389236 ], [ 72.8811839, 19.03888 ], [ 72.8811853, 19.0388652 ], [ 72.8811927, 19.0387893 ], [ 72.8811933, 19.0387828 ], [ 72.8812085, 19.0387013 ], [ 72.8812158, 19.0386619 ], [ 72.8812453, 19.0385176 ], [ 72.8812593, 19.038449 ], [ 72.8812997, 19.0382547 ], [ 72.8812997, 19.0382545 ], [ 72.8812998, 19.0382544 ], [ 72.8813351, 19.0380789 ], [ 72.8813589, 19.0378427 ], [ 72.8813724, 19.0376963 ], [ 72.8813816, 19.037515 ], [ 72.8813594, 19.0372057 ], [ 72.8813559, 19.0371569 ], [ 72.881353, 19.037113 ], [ 72.8813484, 19.037069 ], [ 72.8813443, 19.0370303 ], [ 72.8813405, 19.0369958 ], [ 72.8813363, 19.036959 ], [ 72.8813283, 19.0368808 ], [ 72.8813269, 19.0368678 ], [ 72.8813265, 19.0368645 ], [ 72.8813124, 19.0367667 ], [ 72.8813025, 19.0367077 ], [ 72.8812912, 19.0366401 ], [ 72.881281, 19.0365863 ], [ 72.8812796, 19.0365482 ], [ 72.8812796, 19.0365477 ], [ 72.8812789, 19.0365332 ], [ 72.8812782, 19.0365202 ], [ 72.8812782, 19.0365194 ], [ 72.8812782, 19.0365063 ], [ 72.8812782, 19.0365024 ], [ 72.8812783, 19.0364933 ], [ 72.8812214, 19.0362056 ], [ 72.8812213, 19.0362056 ], [ 72.8812161, 19.0361789 ], [ 72.8812153, 19.036175 ], [ 72.8811953, 19.0361022 ], [ 72.881187, 19.0360722 ], [ 72.8811821, 19.0360544 ], [ 72.8811773, 19.0360366 ], [ 72.8811735, 19.0360201 ], [ 72.8811596, 19.0359503 ], [ 72.8811565, 19.035929 ], [ 72.8811501, 19.0358863 ], [ 72.8811351, 19.0358109 ], [ 72.8811261, 19.0357758 ], [ 72.8811184, 19.0357459 ], [ 72.8810985, 19.0356684 ], [ 72.8810717, 19.0355739 ], [ 72.8810605, 19.0355326 ], [ 72.8810453, 19.0354767 ], [ 72.8810431, 19.0354664 ], [ 72.8810416, 19.0354594 ], [ 72.8810378, 19.0354421 ], [ 72.8810373, 19.0354413 ], [ 72.8810257, 19.0354228 ], [ 72.8810135, 19.0354035 ], [ 72.8810135, 19.0354033 ], [ 72.8810135, 19.0354032 ], [ 72.881006, 19.0353637 ], [ 72.8809986, 19.0353209 ], [ 72.8809938, 19.0352929 ], [ 72.8809852, 19.0352365 ], [ 72.8809804, 19.0352046 ], [ 72.8809798, 19.0352022 ], [ 72.8809791, 19.0351994 ], [ 72.8809788, 19.0351984 ], [ 72.8809756, 19.0351953 ], [ 72.8809555, 19.0351952 ], [ 72.8809437, 19.0351527 ], [ 72.8809322, 19.0351107 ], [ 72.8808988, 19.034973 ], [ 72.8808917, 19.0349473 ], [ 72.8808719, 19.0348752 ], [ 72.8808523, 19.0347941 ], [ 72.8808495, 19.0347849 ], [ 72.8808439, 19.0347669 ], [ 72.8808429, 19.0347634 ], [ 72.8808401, 19.0347488 ], [ 72.8808385, 19.034741 ], [ 72.880783, 19.0345992 ], [ 72.880755, 19.0345331 ], [ 72.8806021, 19.0341826 ], [ 72.8800896, 19.0331588 ], [ 72.880073, 19.0331312 ], [ 72.8800723, 19.0331301 ], [ 72.8800569, 19.0331073 ], [ 72.8800404, 19.0330827 ], [ 72.8799753, 19.0329834 ], [ 72.8799708, 19.0329616 ], [ 72.8799279, 19.0328904 ], [ 72.8799276, 19.03289 ], [ 72.8799083, 19.0328715 ], [ 72.8799049, 19.0328644 ], [ 72.8799002, 19.0328549 ], [ 72.8798314, 19.0327349 ], [ 72.8798287, 19.0327302 ], [ 72.8797804, 19.0326457 ], [ 72.8797774, 19.0326407 ], [ 72.8797726, 19.0326328 ], [ 72.8796286, 19.0323445 ], [ 72.879533, 19.0321564 ], [ 72.8795317, 19.0321539 ], [ 72.8795079, 19.0321115 ], [ 72.8794444, 19.0319951 ], [ 72.8794096, 19.031933 ], [ 72.8793602, 19.0318447 ], [ 72.8792952, 19.0317215 ], [ 72.8792676, 19.0316667 ], [ 72.8791965, 19.0315258 ], [ 72.8791088, 19.0313409 ], [ 72.8790969, 19.0313166 ], [ 72.8790912, 19.031305 ], [ 72.879081, 19.0312811 ], [ 72.8790708, 19.0312571 ], [ 72.8790484, 19.0312045 ], [ 72.8790261, 19.0311518 ], [ 72.878978, 19.0310366 ], [ 72.878964, 19.0310031 ], [ 72.87894, 19.0309463 ], [ 72.8789219, 19.0309035 ], [ 72.8788785, 19.030802 ], [ 72.8788762, 19.0307991 ], [ 72.878819, 19.0307293 ], [ 72.8788189, 19.0307292 ], [ 72.8787844, 19.0306872 ], [ 72.8787837, 19.0306475 ], [ 72.8787835, 19.0306385 ], [ 72.8787785, 19.0305771 ], [ 72.8787716, 19.0304963 ], [ 72.8787699, 19.0304797 ], [ 72.8787688, 19.0304692 ], [ 72.8787476, 19.0303953 ], [ 72.8787397, 19.0303713 ], [ 72.8787397, 19.0303712 ], [ 72.8787198, 19.030311 ], [ 72.8787053, 19.0302723 ], [ 72.8786889, 19.0302423 ], [ 72.8786888, 19.030242 ], [ 72.8786619, 19.030193 ], [ 72.8786124, 19.0300472 ], [ 72.8785741, 19.0299358 ], [ 72.8785444, 19.0298496 ], [ 72.8785354, 19.0298228 ], [ 72.8784658, 19.0296165 ], [ 72.8784291, 19.0295035 ], [ 72.878412, 19.029451 ], [ 72.8783863, 19.0293717 ], [ 72.8783747, 19.0293383 ], [ 72.8783546, 19.0292806 ], [ 72.8782793, 19.0290492 ], [ 72.8782571, 19.0289881 ], [ 72.8782228, 19.0288932 ], [ 72.8781899, 19.0288005 ], [ 72.8781473, 19.0287075 ], [ 72.8781304, 19.0286644 ], [ 72.8781107, 19.0285863 ], [ 72.8780776, 19.0284658 ], [ 72.8780407, 19.0283248 ], [ 72.8779958, 19.028156 ], [ 72.877978, 19.0280889 ], [ 72.8778847, 19.0277327 ], [ 72.8778682, 19.0276595 ], [ 72.8778334, 19.027505 ], [ 72.8778182, 19.0274393 ], [ 72.8778167, 19.0274335 ], [ 72.8777787, 19.0272765 ], [ 72.8777237, 19.0270414 ], [ 72.8776787, 19.0268345 ], [ 72.8776647, 19.0267744 ], [ 72.8776417, 19.0266901 ], [ 72.8775991, 19.0265341 ], [ 72.8775132, 19.0261373 ], [ 72.8774708, 19.0259849 ], [ 72.8774202, 19.0257777 ], [ 72.877393, 19.0256549 ], [ 72.8773778, 19.0255767 ], [ 72.8773689, 19.0255165 ], [ 72.8773687, 19.0255025 ], [ 72.8773685, 19.0254875 ], [ 72.8773685, 19.0254867 ], [ 72.8773683, 19.0254711 ], [ 72.8773649, 19.0254357 ], [ 72.8773638, 19.0254235 ], [ 72.8773627, 19.0254102 ], [ 72.8773615, 19.0253977 ], [ 72.8773437, 19.0252594 ], [ 72.8773332, 19.0251893 ], [ 72.8773285, 19.0251579 ], [ 72.8773154, 19.0250757 ], [ 72.8773137, 19.0250032 ], [ 72.8773137, 19.0250015 ], [ 72.8773136, 19.0249997 ], [ 72.8772987, 19.0248949 ], [ 72.8772947, 19.0247859 ], [ 72.8772912, 19.0247518 ], [ 72.8772824, 19.0246889 ], [ 72.8772822, 19.0246876 ], [ 72.8772802, 19.0246449 ], [ 72.8772828, 19.0246125 ], [ 72.8772853, 19.0245802 ], [ 72.8772867, 19.0245727 ], [ 72.8772856, 19.0245417 ], [ 72.8773, 19.0241395 ], [ 72.8773, 19.0241379 ], [ 72.8772985, 19.0241186 ], [ 72.8772974, 19.0239284 ], [ 72.8772976, 19.0238713 ], [ 72.8772976, 19.0238692 ], [ 72.8772991, 19.023862 ], [ 72.8773043, 19.0238383 ], [ 72.8773242, 19.0237469 ], [ 72.8773306, 19.0237173 ], [ 72.8773515, 19.0236459 ], [ 72.87741, 19.023428 ], [ 72.8774139, 19.0234052 ], [ 72.8774223, 19.0232925 ], [ 72.8774259, 19.0232438 ], [ 72.8774511, 19.0231318 ], [ 72.8775569, 19.0228648 ], [ 72.8775652, 19.0228439 ], [ 72.877593, 19.0227737 ], [ 72.8776269, 19.0226795 ], [ 72.8776813, 19.0225601 ], [ 72.8777253, 19.022466 ], [ 72.8777808, 19.0223408 ], [ 72.8778247, 19.0222387 ], [ 72.8778657, 19.0221529 ], [ 72.8778683, 19.0221484 ], [ 72.8779136, 19.0220676 ], [ 72.878004, 19.0219112 ], [ 72.878004, 19.0219111 ], [ 72.8780772, 19.0217672 ], [ 72.8781196, 19.0216971 ], [ 72.8782277, 19.0215298 ], [ 72.8782527, 19.0214747 ], [ 72.878297, 19.0214119 ], [ 72.878365, 19.0213156 ], [ 72.8784339, 19.021235 ], [ 72.8785943, 19.0210403 ], [ 72.8788012, 19.0207693 ], [ 72.8789875, 19.0205235 ], [ 72.8792525, 19.0201914 ], [ 72.879424, 19.0199596 ], [ 72.8795474, 19.019793 ], [ 72.8796194, 19.0197064 ], [ 72.879646, 19.0196742 ], [ 72.8796759, 19.019638 ], [ 72.8796967, 19.0196128 ], [ 72.8797074, 19.0195997 ], [ 72.8797217, 19.0195846 ], [ 72.8797335, 19.0195703 ], [ 72.879764, 19.0195283 ], [ 72.87978, 19.0195051 ], [ 72.879791, 19.0194896 ], [ 72.8798074, 19.0194703 ], [ 72.8798319, 19.0194397 ], [ 72.879843, 19.0194281 ], [ 72.8798503, 19.0194185 ], [ 72.8798561, 19.0194057 ], [ 72.8798635, 19.0193952 ], [ 72.8798745, 19.0193837 ], [ 72.8798888, 19.0193674 ], [ 72.8799097, 19.0193442 ], [ 72.8799248, 19.019328 ], [ 72.8799354, 19.0193149 ], [ 72.8799465, 19.0193002 ], [ 72.8799661, 19.0192805 ], [ 72.8800548, 19.0191869 ], [ 72.8805119, 19.0187762 ], [ 72.8805303, 19.0187563 ], [ 72.8806404, 19.0186372 ], [ 72.8807077, 19.0185711 ], [ 72.8807711, 19.0185088 ], [ 72.8808629, 19.018417 ], [ 72.8809359, 19.0183427 ], [ 72.8810089, 19.0182685 ], [ 72.8812004, 19.018092 ], [ 72.8812874, 19.0180171 ], [ 72.8813777, 19.0179395 ], [ 72.8814802, 19.0178483 ], [ 72.8816529, 19.0177159 ], [ 72.8817632, 19.0176294 ], [ 72.8818078, 19.0175882 ], [ 72.8819479, 19.0174704 ], [ 72.8820391, 19.0173971 ], [ 72.8820438, 19.0173944 ], [ 72.8820886, 19.0173683 ], [ 72.8821212, 19.0173493 ], [ 72.8822458, 19.0172614 ], [ 72.8825022, 19.017082 ], [ 72.8825287, 19.0170597 ], [ 72.8825486, 19.0170431 ], [ 72.8825512, 19.0170407 ], [ 72.8828063, 19.0168102 ], [ 72.8833055, 19.0164254 ], [ 72.8835751, 19.0161705 ], [ 72.8837499, 19.0159641 ], [ 72.8838643, 19.0157966 ], [ 72.8839504, 19.015618 ], [ 72.884048, 19.0153609 ], [ 72.8842963, 19.0145194 ], [ 72.8843253, 19.014219 ], [ 72.8843581, 19.0138364 ], [ 72.8843627, 19.0137715 ], [ 72.8843728, 19.0136564 ], [ 72.8843872, 19.0134689 ], [ 72.8843886, 19.0134533 ], [ 72.884546, 19.0116949 ], [ 72.8848346, 19.0102534 ], [ 72.884369, 19.0094658 ], [ 72.8839541, 19.0085518 ], [ 72.8842216, 19.0084409 ], [ 72.8840502, 19.0069901 ], [ 72.8837943, 19.0051387 ], [ 72.8836441, 19.0039417 ], [ 72.8838479, 19.0034801 ], [ 72.8835033, 19.0029155 ], [ 72.883691, 19.0025296 ], [ 72.8840464, 19.0024708 ], [ 72.8842771, 19.0026179 ], [ 72.8844058, 19.0025367 ], [ 72.884404, 19.0023481 ], [ 72.8846526, 19.0018114 ], [ 72.8853446, 19.0010379 ], [ 72.8855927, 19.0010671 ], [ 72.8857094, 19.0008743 ], [ 72.8855109, 19.0004204 ], [ 72.8855689, 18.9995036 ], [ 72.8856128, 18.9993603 ], [ 72.8857027, 18.9992703 ], [ 72.8860621, 18.9992259 ], [ 72.8862802, 18.9992947 ], [ 72.88651, 18.9994148 ], [ 72.8868657, 18.9994904 ], [ 72.8871568, 18.9996303 ], [ 72.8876138, 18.999463 ], [ 72.888397, 18.9996431 ], [ 72.888751, 18.9997394 ], [ 72.8891078, 18.9997546 ], [ 72.8898427, 18.999605 ], [ 72.8906098, 18.9996405 ], [ 72.8908324, 18.9997394 ], [ 72.891098, 18.9999144 ], [ 72.891275, 19.0003329 ], [ 72.891452, 19.000485 ], [ 72.891672, 19.0005205 ], [ 72.8918436, 19.000485 ], [ 72.8919858, 19.0003709 ], [ 72.8928199, 18.9997597 ], [ 72.8930292, 18.9997293 ], [ 72.8933054, 18.9997775 ], [ 72.8933778, 18.9998028 ], [ 72.8934824, 19.0003658 ], [ 72.8935012, 19.0008097 ], [ 72.8935066, 19.0009567 ], [ 72.8935531, 19.0010921 ], [ 72.8944566, 19.0012114 ], [ 72.8948099, 19.0012161 ], [ 72.8953045, 19.0012305 ], [ 72.895371, 19.001423 ], [ 72.8955165, 19.0014285 ], [ 72.8953575, 19.0009489 ], [ 72.8953575, 19.0005767 ], [ 72.8954256, 19.000486 ], [ 72.8954256, 18.9998227 ], [ 72.8954534, 18.9997129 ], [ 72.89536, 18.9992023 ], [ 72.8943708, 18.999188 ], [ 72.8928226, 18.9992043 ], [ 72.8924417, 18.9992652 ], [ 72.8919643, 18.9993108 ], [ 72.8917361, 18.9992387 ], [ 72.8915942, 18.9992081 ], [ 72.8916129, 18.9986603 ], [ 72.8916639, 18.9974798 ], [ 72.8916788, 18.9972463 ], [ 72.8917336, 18.9963842 ], [ 72.8917774, 18.9955702 ], [ 72.8936139, 18.9959627 ], [ 72.8945139, 18.9961551 ], [ 72.8946412, 18.9963461 ], [ 72.8947954, 18.996459 ], [ 72.8949778, 18.99653 ], [ 72.8951401, 18.9965401 ], [ 72.8953318, 18.9965122 ], [ 72.895377, 18.9963263 ], [ 72.9011911, 18.9973783 ], [ 72.9028487, 18.997708 ], [ 72.9029587, 18.9975001 ], [ 72.9032108, 18.9973225 ], [ 72.9036346, 18.9972693 ], [ 72.9037468, 18.9968928 ], [ 72.9038465, 18.9964704 ], [ 72.9038385, 18.9957755 ], [ 72.9038504, 18.9939484 ], [ 72.9039025, 18.9938247 ], [ 72.9040262, 18.9937466 ], [ 72.9041737, 18.9937085 ], [ 72.904458, 18.9924937 ], [ 72.9050723, 18.992831 ], [ 72.9051138, 18.9929362 ], [ 72.9051009, 18.993027 ], [ 72.9050562, 18.9930643 ], [ 72.9048825, 18.993122 ], [ 72.9047665, 18.9932672 ], [ 72.9046196, 18.9936072 ], [ 72.9044031, 18.9944123 ], [ 72.9043736, 18.9948891 ], [ 72.9043803, 18.9952683 ], [ 72.904847, 18.995565 ], [ 72.9051916, 18.9956614 ], [ 72.9052775, 18.9958021 ], [ 72.9052842, 18.995934 ], [ 72.9053204, 18.9959961 ], [ 72.9053646, 18.9959873 ], [ 72.9054089, 18.9959023 ], [ 72.9055319, 18.9959663 ], [ 72.9053441, 18.9962176 ], [ 72.9054537, 18.9962754 ], [ 72.9056374, 18.9960165 ], [ 72.9056557, 18.9960069 ], [ 72.9056852, 18.9960139 ], [ 72.9057093, 18.9960266 ], [ 72.9057183, 18.996044 ], [ 72.90572, 18.9960652 ], [ 72.9055525, 18.9964483 ], [ 72.9046296, 18.9978102 ], [ 72.904749, 18.9979243 ], [ 72.9048683, 18.9980376 ], [ 72.9050159, 18.9980821 ], [ 72.9055367, 18.9981438 ], [ 72.9059011, 18.9976002 ], [ 72.905826, 18.9975381 ], [ 72.9059789, 18.9973593 ], [ 72.9060553, 18.9974151 ], [ 72.9062431, 18.9971349 ], [ 72.9063183, 18.9970859 ], [ 72.9064174, 18.9971469 ], [ 72.9058534, 18.9979216 ], [ 72.9059413, 18.9979718 ], [ 72.9058461, 18.9981265 ], [ 72.9061103, 18.9981785 ], [ 72.9067813, 18.9981656 ], [ 72.9068989, 18.9982431 ], [ 72.9069525, 18.9987706 ], [ 72.907607, 18.9990699 ], [ 72.907961, 18.9989735 ], [ 72.9082319, 18.9988569 ], [ 72.9083794, 18.9985982 ], [ 72.908543, 18.998441 ], [ 72.9088408, 18.998517 ], [ 72.9093611, 18.9988797 ], [ 72.9098064, 18.9989761 ], [ 72.9100317, 18.9988746 ], [ 72.9102355, 18.9987174 ], [ 72.913143, 18.9987225 ], [ 72.9135454, 18.9983776 ], [ 72.9140013, 18.9982 ], [ 72.91457, 18.9981848 ], [ 72.9152191, 18.9983776 ], [ 72.9171556, 18.9989558 ], [ 72.9194731, 18.9978449 ], [ 72.9215544, 18.9992906 ], [ 72.9225844, 19.0000666 ], [ 72.9235591, 19.0010123 ], [ 72.926647, 19.0024473 ], [ 72.9292416, 19.0039265 ], [ 72.9421323, 19.0134718 ], [ 72.949444, 19.0185789 ], [ 72.9518473, 19.0203337 ], [ 72.9533069, 19.0214969 ], [ 72.9538857, 19.0221493 ], [ 72.9551625, 19.0232346 ], [ 72.9561549, 19.024368 ], [ 72.9576221, 19.0262926 ], [ 72.9582417, 19.0272156 ], [ 72.9587406, 19.0279459 ], [ 72.9591483, 19.0286153 ], [ 72.9598242, 19.0297564 ], [ 72.9602319, 19.0304396 ], [ 72.9608864, 19.0315516 ], [ 72.9619968, 19.0337524 ], [ 72.9626942, 19.0356389 ], [ 72.963118, 19.037576 ], [ 72.9635953, 19.0395638 ], [ 72.9637402, 19.0414806 ], [ 72.9638636, 19.0434127 ], [ 72.9635954, 19.0451722 ], [ 72.9634612, 19.046947 ], [ 72.9631019, 19.0495533 ], [ 72.9629624, 19.052195 ], [ 72.9628283, 19.0528542 ], [ 72.9627479, 19.0539799 ], [ 72.9626834, 19.0546898 ], [ 72.9626901, 19.0549091 ], [ 72.9625909, 19.0555481 ], [ 72.9625748, 19.0564126 ], [ 72.9625091, 19.0570476 ], [ 72.9624045, 19.0578107 ], [ 72.9627039, 19.060747 ], [ 72.9621416, 19.0624677 ], [ 72.9618037, 19.0636796 ], [ 72.9616642, 19.0647038 ], [ 72.9615496, 19.0674003 ], [ 72.9614067, 19.0684252 ], [ 72.9608058, 19.0703721 ], [ 72.9604975, 19.0726181 ], [ 72.9605323, 19.0739616 ], [ 72.9604183, 19.0743596 ], [ 72.9604152, 19.0747114 ], [ 72.9603016, 19.0754774 ], [ 72.9603721, 19.0773984 ], [ 72.9602963, 19.0807856 ], [ 72.9602694, 19.0812773 ], [ 72.9603982, 19.083949 ], [ 72.960315, 19.0867632 ], [ 72.9603568, 19.0876111 ], [ 72.9604091, 19.0885498 ], [ 72.960366, 19.089708 ], [ 72.9607952, 19.0925367 ], [ 72.9610195, 19.0964513 ], [ 72.9611106, 19.096614 ], [ 72.9612388, 19.096851 ], [ 72.9615239, 19.0986927 ], [ 72.9615829, 19.0990121 ], [ 72.9616473, 19.099448 ], [ 72.962029, 19.1013064 ], [ 72.9625869, 19.1034455 ], [ 72.962957, 19.1050473 ], [ 72.9633433, 19.1061067 ], [ 72.9633808, 19.1062132 ], [ 72.9636437, 19.1071306 ], [ 72.9638748, 19.10777 ], [ 72.9644537, 19.1091531 ], [ 72.9644991, 19.1092582 ], [ 72.9645073, 19.1094369 ], [ 72.9649043, 19.110177 ], [ 72.9651681, 19.110723 ], [ 72.9655266, 19.1113884 ], [ 72.9656117, 19.111562 ], [ 72.9657876, 19.1118975 ], [ 72.9658163, 19.1119815 ], [ 72.9667658, 19.1135224 ], [ 72.967726, 19.1155853 ], [ 72.9686701, 19.1177547 ], [ 72.96959, 19.1201298 ], [ 72.9691744, 19.1201926 ], [ 72.9689463, 19.1201177 ], [ 72.9685904, 19.1200399 ], [ 72.9682049, 19.1201009 ], [ 72.9680354, 19.120087 ], [ 72.9676226, 19.1202402 ], [ 72.9674384, 19.1204073 ], [ 72.9676595, 19.1203028 ], [ 72.968087, 19.1201566 ], [ 72.9685897, 19.1201267 ], [ 72.969346, 19.1203345 ], [ 72.9696472, 19.1203628 ], [ 72.9700059, 19.1219159 ], [ 72.9700595, 19.1224278 ], [ 72.9699222, 19.1244797 ], [ 72.9697148, 19.1262942 ], [ 72.9681981, 19.1285149 ], [ 72.9663527, 19.1311402 ], [ 72.9613111, 19.1345277 ], [ 72.9614352, 19.1346531 ], [ 72.9622282, 19.135455 ], [ 72.9624581, 19.1356997 ], [ 72.9641358, 19.1374567 ], [ 72.9645245, 19.1378731 ], [ 72.9650374, 19.138404 ], [ 72.9656789, 19.1390777 ], [ 72.9670342, 19.1397327 ], [ 72.968074, 19.140654 ], [ 72.969027, 19.1423927 ], [ 72.9692865, 19.1428151 ], [ 72.9699305, 19.1438929 ], [ 72.9702949, 19.1445265 ], [ 72.9705285, 19.1449761 ], [ 72.9708794, 19.1455921 ], [ 72.9717764, 19.147137 ], [ 72.9718735, 19.1473491 ], [ 72.9722574, 19.1479886 ], [ 72.9729335, 19.1491336 ], [ 72.9730351, 19.1492978 ], [ 72.9735543, 19.1499883 ], [ 72.973732, 19.1501713 ], [ 72.9750183, 19.1518945 ], [ 72.9753362, 19.1523183 ], [ 72.9755447, 19.1524723 ], [ 72.9756595, 19.1526554 ], [ 72.9757349, 19.1530233 ], [ 72.975817, 19.153528 ], [ 72.9758394, 19.1536179 ], [ 72.976094, 19.1549241 ], [ 72.9762223, 19.1556317 ], [ 72.9762567, 19.1557834 ], [ 72.9763017, 19.1562668 ], [ 72.9761727, 19.1571816 ], [ 72.9763666, 19.1579506 ], [ 72.9768271, 19.1598554 ], [ 72.9769099, 19.1601154 ], [ 72.9774261, 19.1618647 ], [ 72.9783708, 19.164443 ], [ 72.9787714, 19.165497 ], [ 72.978969, 19.166221 ], [ 72.9790857, 19.1666005 ], [ 72.9791331, 19.1667292 ], [ 72.9796906, 19.168768 ], [ 72.9817485, 19.1703648 ], [ 72.9803131, 19.1703446 ], [ 72.9771448, 19.1721654 ], [ 72.9742464, 19.1742018 ], [ 72.9720345, 19.172718 ], [ 72.9690217, 19.1727562 ], [ 72.9686761, 19.1759134 ], [ 72.9685081, 19.1760117 ], [ 72.9684274, 19.1763224 ], [ 72.9681556, 19.1768995 ], [ 72.9679595, 19.1775312 ], [ 72.9680256, 19.1779136 ], [ 72.9677638, 19.1777923 ], [ 72.9669691, 19.1779506 ], [ 72.9667659, 19.1776556 ], [ 72.9662862, 19.1775204 ], [ 72.9662046, 19.1774267 ], [ 72.9657448, 19.1771438 ], [ 72.964487, 19.1768812 ], [ 72.9639722, 19.1768977 ], [ 72.963784, 19.1766703 ], [ 72.9633791, 19.1768267 ], [ 72.9625576, 19.1776151 ], [ 72.9626225, 19.178107 ], [ 72.9625495, 19.1784252 ], [ 72.9621528, 19.1786949 ], [ 72.9618567, 19.1790107 ], [ 72.9617324, 19.1793911 ], [ 72.9616685, 19.1794425 ], [ 72.9615821, 19.1794789 ], [ 72.9610622, 19.1788707 ], [ 72.9608763, 19.1790084 ], [ 72.9607781, 19.1789015 ], [ 72.9604985, 19.1791148 ], [ 72.9601734, 19.1789001 ], [ 72.9597979, 19.178933 ], [ 72.9597501, 19.1790616 ], [ 72.9597466, 19.1793144 ], [ 72.959394, 19.1794204 ], [ 72.9593925, 19.1797084 ], [ 72.9596001, 19.1800619 ], [ 72.9595604, 19.1802074 ], [ 72.9590187, 19.1808146 ], [ 72.9588093, 19.180858 ], [ 72.95867, 19.1807584 ], [ 72.958622, 19.1808092 ], [ 72.9585385, 19.1810504 ], [ 72.9586574, 19.1816866 ], [ 72.958452, 19.1819278 ], [ 72.9583474, 19.1821528 ], [ 72.9581648, 19.1821675 ], [ 72.9580208, 19.1825524 ], [ 72.9576982, 19.1826659 ], [ 72.9575038, 19.1825905 ], [ 72.957343, 19.1827011 ], [ 72.9566637, 19.1827068 ], [ 72.9565578, 19.1827644 ], [ 72.9564213, 19.1830071 ], [ 72.9557866, 19.1833308 ], [ 72.9556915, 19.1835684 ], [ 72.9558877, 19.1837988 ], [ 72.9558557, 19.1842167 ], [ 72.955528, 19.1843682 ], [ 72.9554233, 19.1846512 ], [ 72.955177, 19.1847606 ], [ 72.955084, 19.1848693 ], [ 72.9549813, 19.1851776 ], [ 72.9544595, 19.1851701 ], [ 72.9544561, 19.1848044 ], [ 72.9544135, 19.1847782 ], [ 72.9537316, 19.1849157 ], [ 72.9534477, 19.184851 ], [ 72.953303, 19.1847412 ], [ 72.9523677, 19.186394 ], [ 72.9497703, 19.1887029 ], [ 72.9486387, 19.1875888 ], [ 72.948139, 19.1875023 ], [ 72.9481166, 19.1875608 ], [ 72.9475413, 19.1878151 ], [ 72.9472903, 19.1876354 ], [ 72.946874, 19.1876567 ], [ 72.9469571, 19.1879332 ], [ 72.9467275, 19.1880204 ], [ 72.9465788, 19.1878007 ], [ 72.9464482, 19.1878903 ], [ 72.9463521, 19.1877872 ], [ 72.9457593, 19.1879285 ], [ 72.9450318, 19.1879342 ], [ 72.9448792, 19.1880211 ], [ 72.944738, 19.1879683 ], [ 72.9442546, 19.1879767 ], [ 72.9434392, 19.1875968 ], [ 72.9428767, 19.1878532 ], [ 72.9422479, 19.1876548 ], [ 72.94194, 19.1873861 ], [ 72.9413343, 19.1881573 ], [ 72.9407464, 19.1886481 ], [ 72.939847, 19.188974 ], [ 72.9411319, 19.1900811 ], [ 72.9416978, 19.1910551 ], [ 72.941724, 19.1922445 ], [ 72.941367, 19.1956996 ], [ 72.9411622, 19.2018562 ], [ 72.9365433, 19.2039855 ], [ 72.9353378, 19.2049319 ], [ 72.9326842, 19.2066938 ], [ 72.9324329, 19.2078528 ], [ 72.9250625, 19.2160101 ], [ 72.922291, 19.2163945 ], [ 72.920089, 19.2169335 ], [ 72.9193659, 19.21674 ], [ 72.9179077, 19.2163635 ], [ 72.9172118, 19.2161664 ], [ 72.9167179, 19.2153834 ], [ 72.9163305, 19.2141739 ], [ 72.9159616, 19.2131772 ], [ 72.9157366, 19.2126075 ], [ 72.9148605, 19.2101727 ], [ 72.9141144, 19.2091477 ], [ 72.9134645, 19.208264 ], [ 72.9133, 19.2080792 ], [ 72.9127872, 19.20802 ], [ 72.9122371, 19.207946 ], [ 72.911627, 19.2078815 ], [ 72.911116, 19.207805 ], [ 72.9101687, 19.2075954 ], [ 72.9074513, 19.2104661 ], [ 72.9082449, 19.2168704 ], [ 72.9099107, 19.2184912 ], [ 72.9101037, 19.2199864 ], [ 72.9102092, 19.2207211 ], [ 72.9103501, 19.2218289 ], [ 72.9104341, 19.2224538 ], [ 72.91077, 19.2246597 ], [ 72.9109748, 19.2260409 ], [ 72.9116796, 19.2274449 ], [ 72.9122595, 19.2286626 ], [ 72.9150651, 19.230718 ], [ 72.9106378, 19.2353286 ], [ 72.9055343, 19.2396691 ], [ 72.9057983, 19.2473224 ], [ 72.9031491, 19.2479094 ], [ 72.9008961, 19.2491249 ], [ 72.8978491, 19.2489629 ], [ 72.898711, 19.2479658 ], [ 72.8936264, 19.2494376 ], [ 72.8920984, 19.2496516 ], [ 72.8885364, 19.2498137 ], [ 72.8862754, 19.2520177 ], [ 72.8854856, 19.252711 ], [ 72.8848471, 19.2532787 ], [ 72.8838943, 19.253679 ], [ 72.8834231, 19.2537973 ], [ 72.8818276, 19.2542582 ], [ 72.8813989, 19.2545677 ], [ 72.8811214, 19.2548722 ], [ 72.8807755, 19.255225 ], [ 72.8802656, 19.2557367 ], [ 72.8798203, 19.2560878 ], [ 72.8795151, 19.2562616 ], [ 72.8787731, 19.2567287 ], [ 72.8786543, 19.2568068 ], [ 72.8783254, 19.2573731 ], [ 72.8782317, 19.2575988 ], [ 72.8779285, 19.2580991 ], [ 72.8776541, 19.2587862 ], [ 72.8773009, 19.2592412 ], [ 72.8768141, 19.2597215 ], [ 72.8761072, 19.2604404 ], [ 72.8758872, 19.2605394 ], [ 72.8757415, 19.2604458 ], [ 72.8753414, 19.2606146 ], [ 72.8752063, 19.260679 ], [ 72.8750591, 19.2607267 ], [ 72.8748556, 19.2606791 ], [ 72.8744902, 19.2606138 ], [ 72.8740431, 19.2606075 ], [ 72.873848, 19.2605825 ], [ 72.8738031, 19.2606913 ], [ 72.8733292, 19.2608042 ], [ 72.8732121, 19.2608472 ], [ 72.8726995, 19.2610656 ], [ 72.8726417, 19.261133 ], [ 72.8724717, 19.2612029 ], [ 72.8722669, 19.2611665 ], [ 72.8721642, 19.261195 ], [ 72.8721556, 19.2611941 ], [ 72.8718944, 19.2612444 ], [ 72.8718697, 19.2612518 ], [ 72.8714607, 19.2611625 ], [ 72.8710914, 19.2610987 ], [ 72.8710933, 19.2611647 ], [ 72.8708005, 19.2612049 ], [ 72.870105, 19.2610773 ], [ 72.8699802, 19.2609879 ], [ 72.8699464, 19.2608198 ], [ 72.8699104, 19.2606659 ], [ 72.8698514, 19.2606159 ], [ 72.8698154, 19.2606111 ], [ 72.86969, 19.2606818 ], [ 72.8693, 19.2608936 ], [ 72.8688528, 19.2611411 ], [ 72.8686257, 19.2614159 ], [ 72.8681192, 19.2620146 ], [ 72.8674863, 19.2626237 ], [ 72.867127, 19.2629578 ], [ 72.8670854, 19.26301 ], [ 72.8660678, 19.2644731 ], [ 72.8659344, 19.2646601 ], [ 72.8657345, 19.2651714 ], [ 72.8661442, 19.2659496 ], [ 72.8661856, 19.2665813 ], [ 72.8660166, 19.2669612 ], [ 72.8655508, 19.2670606 ], [ 72.8650022, 19.2669407 ], [ 72.8647359, 19.2671717 ], [ 72.863792, 19.2674414 ], [ 72.8634714, 19.267832 ], [ 72.8631849, 19.2683227 ], [ 72.8626067, 19.2685064 ], [ 72.8622032, 19.2680812 ], [ 72.8618978, 19.2677064 ], [ 72.8613235, 19.2676355 ], [ 72.8602195, 19.2685354 ], [ 72.8598807, 19.2686941 ], [ 72.8591721, 19.2689766 ], [ 72.858087, 19.2694244 ], [ 72.856719, 19.2690769 ], [ 72.8532493, 19.2673865 ], [ 72.8523637, 19.2675557 ], [ 72.8512451, 19.2680992 ], [ 72.850597, 19.269063 ], [ 72.8503883, 19.2693816 ], [ 72.8500483, 19.2694771 ], [ 72.8498821, 19.2693768 ], [ 72.8486357, 19.2685627 ], [ 72.8476344, 19.2678557 ], [ 72.8470762, 19.2673419 ], [ 72.8466454, 19.2672339 ], [ 72.8461981, 19.2671073 ], [ 72.8461045, 19.2670861 ], [ 72.8455619, 19.2669346 ], [ 72.8446554, 19.2670814 ], [ 72.8441499, 19.2671708 ], [ 72.8432537, 19.2672912 ], [ 72.8428397, 19.2673733 ], [ 72.8424861, 19.26745 ], [ 72.841671, 19.2674248 ], [ 72.8415339, 19.2674166 ], [ 72.8411839, 19.2673148 ], [ 72.84097, 19.2672561 ], [ 72.8407631, 19.2672064 ], [ 72.8404661, 19.2671219 ], [ 72.8403791, 19.2670737 ], [ 72.8400803, 19.2668887 ], [ 72.8398076, 19.2667393 ], [ 72.8394364, 19.2665102 ], [ 72.8390932, 19.2662415 ], [ 72.8390295, 19.2662263 ], [ 72.8389162, 19.2661337 ], [ 72.8387302, 19.2659733 ], [ 72.8386456, 19.2658669 ], [ 72.8384325, 19.265581 ], [ 72.8381324, 19.2651701 ], [ 72.8378212, 19.2647147 ], [ 72.8375498, 19.2643701 ], [ 72.8373927, 19.2641362 ], [ 72.8372475, 19.2638828 ], [ 72.8371952, 19.2638001 ], [ 72.836956, 19.2633961 ], [ 72.8368415, 19.2631121 ], [ 72.8366384, 19.2626022 ], [ 72.8364424, 19.2619035 ], [ 72.8370033, 19.2598217 ], [ 72.8378874, 19.2583945 ], [ 72.8399697, 19.2554048 ], [ 72.8396637, 19.2537592 ], [ 72.8385994, 19.2520386 ], [ 72.8382966, 19.2517142 ], [ 72.8377642, 19.2513117 ], [ 72.8366346, 19.250506 ], [ 72.8359457, 19.2500224 ], [ 72.8352186, 19.2496264 ], [ 72.8349639, 19.2495204 ], [ 72.8343977, 19.2492845 ], [ 72.8332963, 19.2488437 ], [ 72.8319446, 19.2483999 ], [ 72.8313918, 19.2482053 ], [ 72.8311986, 19.2481458 ], [ 72.830697, 19.2479598 ], [ 72.8304467, 19.2478555 ], [ 72.8300698, 19.2476584 ], [ 72.829755, 19.2474819 ], [ 72.8291765, 19.2471886 ], [ 72.8289721, 19.2470636 ], [ 72.8288427, 19.2469583 ], [ 72.8287176, 19.24683 ], [ 72.828421, 19.2464999 ], [ 72.8278666, 19.2457587 ], [ 72.8276699, 19.2454885 ], [ 72.8274368, 19.2452221 ], [ 72.8272035, 19.244973 ], [ 72.8269664, 19.2450134 ], [ 72.8266565, 19.2450529 ], [ 72.8258867, 19.2451259 ], [ 72.824623, 19.2453831 ], [ 72.8241803, 19.2454859 ], [ 72.8235229, 19.2456595 ], [ 72.8231209, 19.2457844 ], [ 72.8227647, 19.2458839 ], [ 72.8223129, 19.2459865 ], [ 72.8220804, 19.2460226 ], [ 72.8210644, 19.2461315 ], [ 72.82064, 19.2462302 ], [ 72.8197596, 19.2464055 ], [ 72.8190253, 19.246535 ], [ 72.8189024, 19.2465465 ], [ 72.8182271, 19.2466897 ], [ 72.8173733, 19.2469172 ], [ 72.8166833, 19.2471423 ], [ 72.8165185, 19.2472224 ], [ 72.816248, 19.2473748 ], [ 72.8160094, 19.2475318 ], [ 72.8157155, 19.2477314 ], [ 72.8153249, 19.2480249 ], [ 72.8148335, 19.2483734 ], [ 72.8139689, 19.2490674 ], [ 72.8133614, 19.2495916 ], [ 72.8127312, 19.2501156 ], [ 72.8123762, 19.2504614 ], [ 72.8120992, 19.2507649 ], [ 72.8119041, 19.2510147 ], [ 72.811641, 19.2513514 ], [ 72.8114239, 19.2515951 ], [ 72.8111887, 19.2518386 ], [ 72.8109444, 19.2520733 ], [ 72.8105438, 19.2524315 ], [ 72.8100006, 19.252909 ], [ 72.8095951, 19.2532974 ], [ 72.8093138, 19.2535749 ], [ 72.8088345, 19.2540358 ], [ 72.808549, 19.254296 ], [ 72.80824, 19.2546077 ], [ 72.8078436, 19.2549919 ], [ 72.8074616, 19.2553157 ], [ 72.8071486, 19.2555928 ], [ 72.8069093, 19.2557931 ], [ 72.8066612, 19.2559759 ], [ 72.8063489, 19.2561925 ], [ 72.80589, 19.2564852 ], [ 72.8056192, 19.2566634 ], [ 72.8048837, 19.257225 ], [ 72.8046399, 19.2574295 ], [ 72.8044376, 19.2575826 ], [ 72.8042679, 19.2576843 ], [ 72.8040568, 19.2578243 ], [ 72.8038085, 19.2580201 ], [ 72.803537, 19.2582459 ], [ 72.8033442, 19.2583732 ], [ 72.8031421, 19.2585177 ], [ 72.8028348, 19.2586998 ], [ 72.8026057, 19.2588224 ], [ 72.8024188, 19.2588972 ], [ 72.8016629, 19.2590609 ], [ 72.8010351, 19.2588755 ], [ 72.8008065, 19.2588232 ], [ 72.8008574, 19.2593298 ], [ 72.8008502, 19.2595392 ], [ 72.8007862, 19.2599191 ], [ 72.8007602, 19.2600706 ], [ 72.8006905, 19.2603348 ], [ 72.800617, 19.2604946 ], [ 72.800891, 19.2610829 ], [ 72.8008568, 19.2611692 ], [ 72.8005748, 19.2612783 ], [ 72.800221, 19.2618718 ], [ 72.7999131, 19.2619712 ], [ 72.7998405, 19.2619511 ], [ 72.7997222, 19.2622689 ], [ 72.7994004, 19.2622061 ], [ 72.7989755, 19.2622148 ], [ 72.798825, 19.2622078 ], [ 72.7978697, 19.2622095 ], [ 72.7963475, 19.2622184 ], [ 72.7961008, 19.2622209 ], [ 72.7961021, 19.2622252 ], [ 72.7950474, 19.2620758 ], [ 72.7946599, 19.2620187 ], [ 72.7944313, 19.2619794 ], [ 72.7926194, 19.2617699 ], [ 72.7926057, 19.2617787 ], [ 72.7924946, 19.2617563 ], [ 72.7924007, 19.2617446 ], [ 72.7923419, 19.2617762 ], [ 72.7922952, 19.2617467 ], [ 72.7922692, 19.2617733 ], [ 72.792068, 19.2617077 ], [ 72.7919203, 19.2617 ], [ 72.7913211, 19.2615103 ], [ 72.7900783, 19.2614865 ], [ 72.7899323, 19.2614429 ], [ 72.7898601, 19.2614731 ], [ 72.7883112, 19.263206 ], [ 72.7874129, 19.2635688 ], [ 72.787062, 19.2637042 ], [ 72.7865911, 19.2638955 ], [ 72.7845016, 19.2647592 ], [ 72.7843501, 19.2647904 ], [ 72.7837151, 19.2648545 ], [ 72.7837178, 19.2646975 ], [ 72.7837473, 19.264586 ], [ 72.7837549, 19.2643921 ], [ 72.7838331, 19.2641455 ], [ 72.7839303, 19.2638848 ], [ 72.7840236, 19.2638189 ], [ 72.7841093, 19.2637783 ], [ 72.7842515, 19.26371 ], [ 72.7843836, 19.2634872 ], [ 72.784455, 19.2632715 ], [ 72.7844265, 19.2629023 ], [ 72.7842683, 19.2625086 ], [ 72.7842146, 19.2622921 ], [ 72.7841154, 19.262087 ], [ 72.7838579, 19.2617345 ], [ 72.7837466, 19.2614236 ], [ 72.7833467, 19.2608957 ], [ 72.7831873, 19.2607146 ], [ 72.7830168, 19.260357 ], [ 72.7824765, 19.2600031 ], [ 72.7820635, 19.2600994 ], [ 72.7816236, 19.2601095 ], [ 72.7814412, 19.2600538 ], [ 72.7812749, 19.2599272 ], [ 72.7812105, 19.2597195 ], [ 72.7814197, 19.259365 ], [ 72.7817523, 19.2587928 ], [ 72.7818382, 19.2583522 ], [ 72.7818382, 19.2578103 ], [ 72.7817202, 19.257466 ], [ 72.781983, 19.2572381 ], [ 72.7821949, 19.2569386 ], [ 72.7823639, 19.2563569 ], [ 72.7825302, 19.2556175 ], [ 72.7827126, 19.2540779 ], [ 72.7828494, 19.2527966 ], [ 72.7828842, 19.2515002 ], [ 72.7828842, 19.2506898 ], [ 72.7828521, 19.2502644 ], [ 72.7827823, 19.249839 ], [ 72.7822968, 19.2477372 ], [ 72.7821171, 19.2468231 ], [ 72.7818784, 19.2458937 ], [ 72.7814278, 19.2447086 ], [ 72.7809826, 19.243569 ], [ 72.7807841, 19.2426751 ], [ 72.7806258, 19.2418825 ], [ 72.7805319, 19.2415305 ], [ 72.7808028, 19.2411329 ], [ 72.7809638, 19.2410012 ], [ 72.7810013, 19.2406948 ], [ 72.7810094, 19.2404492 ], [ 72.7807509, 19.2396291 ], [ 72.7804971, 19.2391526 ], [ 72.7802449, 19.2387221 ], [ 72.780143, 19.2385575 ], [ 72.7800035, 19.238441 ], [ 72.7793813, 19.238246 ], [ 72.7791157, 19.23817 ], [ 72.778877, 19.2379598 ], [ 72.7787456, 19.2377547 ], [ 72.7786732, 19.2373951 ], [ 72.7786437, 19.2369747 ], [ 72.7787322, 19.2366531 ], [ 72.7789828, 19.2364119 ], [ 72.779333, 19.2359313 ], [ 72.7795836, 19.2353341 ], [ 72.7797702, 19.2344954 ], [ 72.7798748, 19.2333836 ], [ 72.7802273, 19.2321573 ], [ 72.7805239, 19.2314792 ], [ 72.7806017, 19.2312728 ], [ 72.7806205, 19.2310436 ], [ 72.7805936, 19.2308309 ], [ 72.7804402, 19.2305895 ], [ 72.7797675, 19.2298938 ], [ 72.7792633, 19.2291189 ], [ 72.7788851, 19.2285237 ], [ 72.7785391, 19.2280147 ], [ 72.77797, 19.2271975 ], [ 72.7775493, 19.2267129 ], [ 72.7766642, 19.226252 ], [ 72.7763611, 19.2259126 ], [ 72.7761868, 19.2254846 ], [ 72.7761358, 19.2250034 ], [ 72.7760124, 19.2244665 ] ] ], [ [ [ 72.7802821, 19.1337619 ], [ 72.7803238, 19.1335986 ], [ 72.7805742, 19.1332663 ], [ 72.7806219, 19.1332213 ], [ 72.780759, 19.1332438 ], [ 72.7808245, 19.1332776 ], [ 72.7809437, 19.13321 ], [ 72.7810153, 19.1330974 ], [ 72.7810927, 19.1327989 ], [ 72.7811345, 19.1326976 ], [ 72.7810987, 19.1325455 ], [ 72.7813788, 19.1323147 ], [ 72.7814265, 19.1323879 ], [ 72.781504, 19.1324329 ], [ 72.7816232, 19.1324104 ], [ 72.7817543, 19.1322752 ], [ 72.7818676, 19.1322471 ], [ 72.7818855, 19.1320218 ], [ 72.7820464, 19.1318079 ], [ 72.7822014, 19.1317009 ], [ 72.7822073, 19.1316108 ], [ 72.7823206, 19.1315713 ], [ 72.7825352, 19.1314981 ], [ 72.7826425, 19.1314643 ], [ 72.7828213, 19.1313517 ], [ 72.7828213, 19.1312335 ], [ 72.7829286, 19.1311997 ], [ 72.7829464, 19.1310533 ], [ 72.7831372, 19.1309181 ], [ 72.7832147, 19.1308956 ], [ 72.7832623, 19.1308224 ], [ 72.7835127, 19.1306816 ], [ 72.7835604, 19.1307267 ], [ 72.7836855, 19.130721 ], [ 72.7837809, 19.1306028 ], [ 72.7838524, 19.1305802 ], [ 72.7838882, 19.1306309 ], [ 72.7838286, 19.1307435 ], [ 72.7837094, 19.1308168 ], [ 72.783459, 19.1309069 ], [ 72.7832683, 19.1309744 ], [ 72.783161, 19.1310138 ], [ 72.7831312, 19.1311434 ], [ 72.7829107, 19.1313742 ], [ 72.7827617, 19.1315657 ], [ 72.7825531, 19.1317684 ], [ 72.7823206, 19.1319148 ], [ 72.7822312, 19.1320331 ], [ 72.7822848, 19.1321176 ], [ 72.7821835, 19.1322978 ], [ 72.7822371, 19.1323653 ], [ 72.7823683, 19.1323653 ], [ 72.7824577, 19.1322189 ], [ 72.7825113, 19.1320894 ], [ 72.7827021, 19.1320894 ], [ 72.7829226, 19.1321288 ], [ 72.7832266, 19.1324667 ], [ 72.7832743, 19.1325624 ], [ 72.7832862, 19.1327595 ], [ 72.7832325, 19.1330636 ], [ 72.7833816, 19.133272 ], [ 72.7835306, 19.1333058 ], [ 72.7836379, 19.133379 ], [ 72.7837153, 19.1335535 ], [ 72.7837094, 19.1337281 ], [ 72.7837869, 19.1338463 ], [ 72.7837749, 19.1339759 ], [ 72.7837332, 19.1340603 ], [ 72.7835127, 19.1342124 ], [ 72.7833564, 19.1343478 ], [ 72.783316, 19.1344038 ], [ 72.7833279, 19.1345277 ], [ 72.7832862, 19.1347023 ], [ 72.7832087, 19.1348374 ], [ 72.7830597, 19.1349444 ], [ 72.7830001, 19.1350683 ], [ 72.7828928, 19.1351303 ], [ 72.7828213, 19.1350908 ], [ 72.7827557, 19.1349838 ], [ 72.7827021, 19.1350627 ], [ 72.7827021, 19.1351584 ], [ 72.7826246, 19.1351753 ], [ 72.7825292, 19.1352147 ], [ 72.7824756, 19.1352767 ], [ 72.7823742, 19.1352767 ], [ 72.7822431, 19.1353555 ], [ 72.7820881, 19.135333 ], [ 72.781957, 19.1353499 ], [ 72.7818616, 19.1353499 ], [ 72.7817305, 19.1353048 ], [ 72.7814802, 19.1353048 ], [ 72.7813312, 19.1352203 ], [ 72.7812835, 19.1351415 ], [ 72.7811941, 19.1350908 ], [ 72.7811106, 19.1350402 ], [ 72.7810868, 19.1348825 ], [ 72.7809914, 19.1347811 ], [ 72.7808603, 19.1346741 ], [ 72.7808126, 19.1345052 ], [ 72.7808364, 19.1342631 ], [ 72.7806517, 19.134325 ], [ 72.7805325, 19.1342405 ], [ 72.7803894, 19.1341054 ], [ 72.7803477, 19.1340265 ], [ 72.7802821, 19.1337619 ] ] ], [ [ [ 72.807725, 19.0749755 ], [ 72.8077282, 19.0747739 ], [ 72.8078388, 19.0745925 ], [ 72.8079926, 19.0744486 ], [ 72.8082137, 19.0742937 ], [ 72.8084102, 19.0742595 ], [ 72.8085755, 19.0743523 ], [ 72.8085748, 19.0745842 ], [ 72.8088815, 19.0747363 ], [ 72.8090132, 19.0748576 ], [ 72.8091594, 19.0749478 ], [ 72.8094668, 19.0749447 ], [ 72.8098174, 19.0748271 ], [ 72.8099936, 19.074819 ], [ 72.8100783, 19.0748615 ], [ 72.8102002, 19.0748167 ], [ 72.8103689, 19.074679 ], [ 72.8104637, 19.0746055 ], [ 72.8106244, 19.0746258 ], [ 72.8106819, 19.0747095 ], [ 72.8106918, 19.0748018 ], [ 72.8107037, 19.074912 ], [ 72.8102825, 19.0761644 ], [ 72.8101219, 19.0764842 ], [ 72.8098649, 19.0768716 ], [ 72.8097511, 19.0771466 ], [ 72.809745, 19.0773022 ], [ 72.8098125, 19.0774358 ], [ 72.8099491, 19.0775134 ], [ 72.8100582, 19.0776248 ], [ 72.8101239, 19.0777625 ], [ 72.8100618, 19.0778398 ], [ 72.8100515, 19.0779399 ], [ 72.8100712, 19.0781549 ], [ 72.8101263, 19.0782448 ], [ 72.8101362, 19.0783574 ], [ 72.8100971, 19.0785601 ], [ 72.810117, 19.0786919 ], [ 72.8099371, 19.0787878 ], [ 72.8098147, 19.0787544 ], [ 72.8096717, 19.078641 ], [ 72.8095716, 19.0785591 ], [ 72.8094815, 19.0784531 ], [ 72.8094267, 19.0784082 ], [ 72.8093787, 19.0783266 ], [ 72.80932, 19.0781767 ], [ 72.8092832, 19.0779822 ], [ 72.8092778, 19.0779189 ], [ 72.809198, 19.0777426 ], [ 72.809164, 19.0776825 ], [ 72.8090991, 19.0776587 ], [ 72.8090513, 19.0777131 ], [ 72.8090303, 19.0777742 ], [ 72.8090635, 19.0780213 ], [ 72.8090969, 19.0782457 ], [ 72.8092275, 19.0786834 ], [ 72.8093682, 19.0792579 ], [ 72.8093692, 19.0794705 ], [ 72.809342, 19.0796201 ], [ 72.8093241, 19.0797001 ], [ 72.8092381, 19.0797537 ], [ 72.8091821, 19.0796926 ], [ 72.8091725, 19.0793317 ], [ 72.8090131, 19.079077 ], [ 72.8088987, 19.07873 ], [ 72.8088965, 19.0785026 ], [ 72.8089387, 19.0782345 ], [ 72.8089278, 19.0779025 ], [ 72.8088732, 19.0777207 ], [ 72.8087954, 19.0775302 ], [ 72.8086678, 19.0773646 ], [ 72.8085961, 19.0771482 ], [ 72.8086394, 19.0770248 ], [ 72.8087111, 19.0769449 ], [ 72.8086549, 19.0764643 ], [ 72.8085665, 19.0761658 ], [ 72.8084263, 19.0760703 ], [ 72.8082675, 19.0761003 ], [ 72.8081218, 19.076092 ], [ 72.8079758, 19.076008 ], [ 72.807888, 19.0759307 ], [ 72.807725, 19.0749755 ] ] ] ] } }
]
}
